"BRIN.NUMMER";"PROVINCIE.x";"BEVOEGD.GEZAG.NUMMER";"INSTELLINGSNAAM";"STRAATNAAM";"HUISNUMMER.TOEVOEGING";"POSTCODE";"PLAATSNAAM";"GEMEENTENUMMER";"GEMEENTENAAM.x";"DENOMINATIE";"TELEFOONNUMMER";"INTERNETADRES";"STRAATNAAM.CORRESPONDENTIEADRES";"HUISNUMMER.TOEVOEGING.CORRESPONDENTIEADRES";"POSTCODE.CORRESPONDENTIEADRES";"PLAATSNAAM.CORRESPONDENTIEADRES";"NODAAL.GEBIED.CODE";"NODAAL.GEBIED.NAAM";"RPA.GEBIED.CODE";"RPA.GEBIED.NAAM";"WGR.GEBIED.CODE";"WGR.GEBIED.NAAM";"COROPGEBIED.CODE";"COROPGEBIED.NAAM";"ONDERWIJSGEBIED.CODE";"ONDERWIJSGEBIED.NAAM";"RMC.REGIO.CODE";"RMC.REGIO.NAAM";"VESTIGINGSNUMMER";"NAAM_INSTELLING";"GEMEENTENAAM.y";"PROVINCIE.y";"SWV";"BEVOEGD_GEZAG_NUMMER";"TOTAAL";"TOTAAL_JONGER_8";"TOTAAL_8_EO";"TOTAAL_GEW00";"TOTAAL_GEW03";"TOTAAL_GEW12";"TOTAAL_NOAT";"TOTAAL_BEKOSTIGD";"BEK_JONGER_8";"BEK_8_EO";"BEK_GEW00";"BEK_GEW03";"BEK_GEW12";"BEK_NOAT";"TOTAAL_NIET_BEKOSTIGD";"NIETBEK_JONGER_8";"NIETBEK_8_EO";"NIETBEK_GEW00";"NIETBEK_GEW03";"NIETBEK_GEW12";"NIETBEK_NOAT";"lat";"lon";"NOATPCT";"DESC"
"1";"04IU";"Noord-Holland";20970;"Asvo School";"Frederiksplein";"37";"1017 XL";"AMSTERDAM";363;"AMSTERDAM";"Algemeen bijzonder";206269005;"www.asvo.nl";"Frederiksplein";"37";"1017 XL";"AMSTERDAM";44;"Amsterdam";20;"Zuidelijk Noord-Holland";21;"Agglomeratie Amsterdam";23;"Groot-Amsterdam";15;"Zuid-Noord-Holland";21;"Agglomeratie Amsterdam";0;"Asvo School";"AMSTERDAM";"Noord-Holland";"PO2707";20970;355;180;175;355;0;0;33;354;179;175;354;0;0;33;1;1;0;1;0;0;0;52.3608664;4.9010893;9.29577464788732;"br />  <br /> 355 <br /> 9.29577464788732"
"2";"04JA";"Noord-Holland";21464;"Basisschool Rosj Pina";"Nieuw Herlaer";"18-20";"1083 BD";"AMSTERDAM";363;"AMSTERDAM";"Joods";206427644;"                                                                                ";"Postbus";"87058";"1080 JB";"AMSTERDAM";44;"Amsterdam";20;"Zuidelijk Noord-Holland";21;"Agglomeratie Amsterdam";23;"Groot-Amsterdam";15;"Zuid-Noord-Holland";21;"Agglomeratie Amsterdam";0;"Basisschool Rosj Pina";"AMSTERDAM";"Noord-Holland";"PO2707";21464;246;127;119;245;1;0;72;246;127;119;245;1;0;72;0;0;0;0;0;0;0;52.3265384;4.8873132;29.2682926829268;"br />  <br /> 246 <br /> 29.2682926829268"
"3";"04JS";"Noord-Holland";23440;"Schoolvereniging Willemspark";"Willem Witsenstraat";"12";"1077 AZ";"AMSTERDAM";363;"AMSTERDAM";"Algemeen bijzonder";206719806;"www.willemsparkschool.nl";"Willem Witsenstraat";"12";"1077 AZ";"AMSTERDAM";44;"Amsterdam";20;"Zuidelijk Noord-Holland";21;"Agglomeratie Amsterdam";23;"Groot-Amsterdam";15;"Zuid-Noord-Holland";21;"Agglomeratie Amsterdam";0;"Schoolver Willemspark";"AMSTERDAM";"Noord-Holland";"PO2707";23440;235;117;118;235;0;0;0;235;117;118;235;0;0;0;0;0;0;0;0;0;0;52.3510754;4.8697049;0;"br />  <br /> 235 <br /> 0"
"4";"04LA";"Noord-Holland";81316;"Oecumenische Basisschool De Rivieren";"Lekstraat";"35-37";"1079 EM";"AMSTERDAM";363;"AMSTERDAM";"Protestants-Christelijk";206641267;"www.derivieren.nl";"Lekstraat";"35-37";"1079 EM";"AMSTERDAM";44;"Amsterdam";20;"Zuidelijk Noord-Holland";21;"Agglomeratie Amsterdam";23;"Groot-Amsterdam";15;"Zuid-Noord-Holland";21;"Agglomeratie Amsterdam";0;"De Rivieren";"AMSTERDAM";"Noord-Holland";"PO2707";81316;167;96;71;146;5;16;41;166;95;71;145;5;16;41;1;1;0;1;0;0;0;52.344107;4.9042392;24.5508982035928;"br />  <br /> 167 <br /> 24.5508982035928"
"5";"04ST";"Noord-Holland";27770;"Sint Barbara-School Basisschool";"Eikenplein";"3";"1092 CC";"AMSTERDAM";363;"AMSTERDAM";"Rooms-Katholiek";206650790;"www.barbaraschool.nl";"Eikenplein";"3";"1092 CC";"AMSTERDAM";44;"Amsterdam";20;"Zuidelijk Noord-Holland";21;"Agglomeratie Amsterdam";23;"Groot-Amsterdam";15;"Zuid-Noord-Holland";21;"Agglomeratie Amsterdam";0;"St Barbara-Sch Basissch";"AMSTERDAM";"Noord-Holland";"PO2707";27770;108;75;33;88;3;17;27;108;75;33;88;3;17;27;0;0;0;0;0;0;0;52.3581898;4.9219012;25;"br />  <br /> 108 <br /> 25"
"6";"05FR";"Noord-Holland";41023;"Basisschool Het Wespennest";"Breedveld";"6";"1025 PZ";"AMSTERDAM";363;"AMSTERDAM";"Rooms-Katholiek";206370555;"www.hetwespennest.nl";"Breedveld";"6";"1025 PZ";"AMSTERDAM";44;"Amsterdam";20;"Zuidelijk Noord-Holland";21;"Agglomeratie Amsterdam";23;"Groot-Amsterdam";15;"Zuid-Noord-Holland";21;"Agglomeratie Amsterdam";0;"Basissch Het Wespennest";"AMSTERDAM";"Noord-Holland";"PO2707";41023;238;119;119;233;2;3;25;238;119;119;233;2;3;25;0;0;0;0;0;0;0;52.3959262;4.934912;10.5042016806723;"br />  <br /> 238 <br /> 10.5042016806723"
"7";"05FS";"Noord-Holland";27770;"Rooms Katholieke Basisschool Het Koggeschip";"Abraham Kuyperplein";"2";"1067 DE";"AMSTERDAM";363;"AMSTERDAM";"Rooms-Katholiek";205061980;"www.tkoggeschip.nl";"Abraham Kuyperplein";"2";"1067 DE";"AMSTERDAM";44;"Amsterdam";20;"Zuidelijk Noord-Holland";21;"Agglomeratie Amsterdam";23;"Groot-Amsterdam";15;"Zuid-Noord-Holland";21;"Agglomeratie Amsterdam";0;"RK Basissch H Koggeschip";"AMSTERDAM";"Noord-Holland";"PO2707";27770;561;291;270;487;12;62;397;561;291;270;487;12;62;397;0;0;0;0;0;0;0;52.382836;4.802576;70.7664884135472;"br />  <br /> 561 <br /> 70.7664884135472"
"8";"05LX";"Noord-Holland";41646;"G.B.S. Veerkracht";"Slotermeerlaan";"160";"1063 JW";"AMSTERDAM";363;"AMSTERDAM";"Gereformeerd vrijgemaakt";206136666;"www.gbsveerkracht.nl";"Van Moerkerkenstraat";"89";"1064 KC";"AMSTERDAM";44;"Amsterdam";20;"Zuidelijk Noord-Holland";21;"Agglomeratie Amsterdam";23;"Groot-Amsterdam";15;"Zuid-Noord-Holland";21;"Agglomeratie Amsterdam";0;"G.B.S. Veerkracht";"AMSTERDAM";"Noord-Holland";"PO2707";41646;161;89;72;131;9;21;81;161;89;72;131;9;21;81;0;0;0;0;0;0;0;52.3836762;4.8219827;50.3105590062112;"br />  <br /> 161 <br /> 50.3105590062112"
"9";"05VP";"Noord-Holland";94459;"Cornelis Vrijschool voor Basisonderwijs";"Van de Veldestraat";"3";"1071 CW";"AMSTERDAM";363;"AMSTERDAM";"Algemeen bijzonder";206623754;"www.cornelisvrij.nl";"Van de Veldestraat";"3";"1071 CW";"AMSTERDAM";44;"Amsterdam";20;"Zuidelijk Noord-Holland";21;"Agglomeratie Amsterdam";23;"Groot-Amsterdam";15;"Zuid-Noord-Holland";21;"Agglomeratie Amsterdam";0;"Cornelis Vrijschool";"AMSTERDAM";"Noord-Holland";"PO2707";94459;254;122;132;254;0;0;1;253;121;132;253;0;0;1;1;1;0;1;0;0;0;52.3595368;4.8798804;0.393700787401575;"br />  <br /> 254 <br /> 0.393700787401575"
"10";"06GK";"Noord-Holland";28420;"Basisschool De Wiltzangh";"Hertspieghelweg";"55";"1055 KK";"AMSTERDAM";363;"AMSTERDAM";"Protestants-Christelijk";206840451;"www.dewiltzangh.nl";"Hertspieghelweg";"55";"1055 KK";"AMSTERDAM";44;"Amsterdam";20;"Zuidelijk Noord-Holland";21;"Agglomeratie Amsterdam";23;"Groot-Amsterdam";15;"Zuid-Noord-Holland";21;"Agglomeratie Amsterdam";0;"Basisschool De Wiltzangh";"AMSTERDAM";"Noord-Holland";"PO2707";28420;174;82;92;152;5;17;128;174;82;92;152;5;17;128;0;0;0;0;0;0;0;52.3816894;4.8508395;73.5632183908046;"br />  <br /> 174 <br /> 73.5632183908046"
"11";"07AD";"Noord-Holland";78457;"Stichting Joodse Kindergemeenschap Cheider";"Zeelandstraat";"11";"1082 BV";"AMSTERDAM";363;"AMSTERDAM";"Joods";206465564;"                                                                                ";"Postbus";"7828";"1008 AA";"AMSTERDAM";44;"Amsterdam";20;"Zuidelijk Noord-Holland";21;"Agglomeratie Amsterdam";23;"Groot-Amsterdam";15;"Zuid-Noord-Holland";21;"Agglomeratie Amsterdam";0;"Stg Joodse Kindergem Cheider";"AMSTERDAM";"Noord-Holland";"PO2707";78457;67;33;34;60;6;1;18;67;33;34;60;6;1;18;0;0;0;0;0;0;0;52.3268086;4.879022;26.865671641791;"br />  <br /> 67 <br /> 26.865671641791"
"12";"07HQ";"Noord-Holland";20905;"Basisschool Instituut Schreuder";"Van de Veldestraat";"10";"1071 CW";"AMSTERDAM";363;"AMSTERDAM";"Protestants-Christelijk";206795827;"                                                                                ";"Van de Veldestraat";"10";"1071 CW";"AMSTERDAM";44;"Amsterdam";20;"Zuidelijk Noord-Holland";21;"Agglomeratie Amsterdam";23;"Groot-Amsterdam";15;"Zuid-Noord-Holland";21;"Agglomeratie Amsterdam";0;"Basissch Inst Schreuder";"AMSTERDAM";"Noord-Holland";"PO2707";20905;197;83;114;172;20;5;21;197;83;114;172;20;5;21;0;0;0;0;0;0;0;52.3589615;4.8798723;10.6598984771574;"br />  <br /> 197 <br /> 10.6598984771574"
"13";"07JH";"Noord-Holland";41023;"Admiraal De Ruyterschool";"Bestevaerstraat";"42-44";"1056 HP";"AMSTERDAM";363;"AMSTERDAM";"Protestants-Christelijk";206182180;"www.admiraalderuyterschool.nl";"Bestevaerstraat";"42-44";"1056 HP";"AMSTERDAM";44;"Amsterdam";20;"Zuidelijk Noord-Holland";21;"Agglomeratie Amsterdam";23;"Groot-Amsterdam";15;"Zuid-Noord-Holland";21;"Agglomeratie Amsterdam";0;"Admiraal De Ruyterschool";"AMSTERDAM";"Noord-Holland";"PO2707";41023;217;123;94;203;5;9;93;217;123;94;203;5;9;93;0;0;0;0;0;0;0;52.3739551;4.860117;42.8571428571429;"br />  <br /> 217 <br /> 42.8571428571429"
"14";"07JK";"Noord-Holland";28614;"Eerste Openluchtschool voor het Gezonde Kind";"Cliostraat";"40";"1077 KJ";"AMSTERDAM";363;"AMSTERDAM";"Algemeen bijzonder";206799012;"www.openluchtschool1.nl";"Cliostraat";"40";"1077 KJ";"AMSTERDAM";44;"Amsterdam";20;"Zuidelijk Noord-Holland";21;"Agglomeratie Amsterdam";23;"Groot-Amsterdam";15;"Zuid-Noord-Holland";21;"Agglomeratie Amsterdam";0;"Eerste Openluchtschool";"AMSTERDAM";"Noord-Holland";"PO2707";28614;237;118;119;237;0;0;6;237;118;119;237;0;0;6;0;0;0;0;0;0;0;52.3479459;4.8744065;2.53164556962025;"br />  <br /> 237 <br /> 2.53164556962025"
"15";"07RC";"Noord-Holland";58826;"Peetersschool";"Richard Holstraat";"8";"1071 SM";"AMSTERDAM";363;"AMSTERDAM";"Rooms-Katholiek";206625997;"www.peetersschool.nl";"Richard Holstraat";"8";"1071 SM";"AMSTERDAM";44;"Amsterdam";20;"Zuidelijk Noord-Holland";21;"Agglomeratie Amsterdam";23;"Groot-Amsterdam";15;"Zuid-Noord-Holland";21;"Agglomeratie Amsterdam";0;"Peetersschool";"AMSTERDAM";"Noord-Holland";"PO2707";58826;231;117;114;231;0;0;6;231;117;114;231;0;0;6;0;0;0;0;0;0;0;52.352148;4.8776017;2.5974025974026;"br />  <br /> 231 <br /> 2.5974025974026"
"16";"07TJ";"Noord-Holland";27770;"Brede school Fiep Westendorp";"Overschiestraat";"168";"1062 XK";"AMSTERDAM";363;"AMSTERDAM";"Rooms-Katholiek";204080513;"www.bsfiepwestendorp.nl";"Overschiestraat";"168";"1062 XK";"AMSTERDAM";44;"Amsterdam";20;"Zuidelijk Noord-Holland";21;"Agglomeratie Amsterdam";23;"Groot-Amsterdam";15;"Zuid-Noord-Holland";21;"Agglomeratie Amsterdam";2;"Brede school Fiep Westendorp";"AMSTERDAM";"Noord-Holland";"PO2707";27770;251;106;145;200;17;34;166;251;106;145;200;17;34;166;0;0;0;0;0;0;0;52.3492679;4.8385066;66.1354581673307;"br />  <br /> 251 <br /> 66.1354581673307"
"17";"07TJ";"Noord-Holland";27770;"Brede school Fiep Westendorp";"Overschiestraat";"168";"1062 XK";"AMSTERDAM";363;"AMSTERDAM";"Rooms-Katholiek";204080513;"www.bsfiepwestendorp.nl";"Overschiestraat";"168";"1062 XK";"AMSTERDAM";44;"Amsterdam";20;"Zuidelijk Noord-Holland";21;"Agglomeratie Amsterdam";23;"Groot-Amsterdam";15;"Zuid-Noord-Holland";21;"Agglomeratie Amsterdam";0;"Brede school Fiep Westendorp";"AMSTERDAM";"Noord-Holland";"PO2707";27770;326;206;120;275;14;37;202;326;206;120;275;14;37;202;0;0;0;0;0;0;0;52.3492679;4.8385066;61.9631901840491;"br />  <br /> 326 <br /> 61.9631901840491"
"18";"07TK";"Noord-Holland";41023;"Basisschool De Bienkorf";"Mariendaal";"11";"1025 BT";"AMSTERDAM";363;"AMSTERDAM";"Rooms-Katholiek";206367067;"www.bienkorf.nl";"Mariendaal";"11";"1025 BT";"AMSTERDAM";44;"Amsterdam";20;"Zuidelijk Noord-Holland";21;"Agglomeratie Amsterdam";23;"Groot-Amsterdam";15;"Zuid-Noord-Holland";21;"Agglomeratie Amsterdam";0;"Basisschool De Bienkorf";"AMSTERDAM";"Noord-Holland";"PO2707";41023;346;190;156;324;5;17;111;346;190;156;324;5;17;111;0;0;0;0;0;0;0;52.4021262;4.9416228;32.0809248554913;"br />  <br /> 346 <br /> 32.0809248554913"
"19";"07XC";"Noord-Holland";81810;"Hildebrand van Loonschool";"Hondecoeterstraat";"6";"1071 LR";"AMSTERDAM";363;"AMSTERDAM";"Protestants-Christelijk";206760625;"                                                                                ";"Hondecoeterstraat";"6";"1071 LR";"AMSTERDAM";44;"Amsterdam";20;"Zuidelijk Noord-Holland";21;"Agglomeratie Amsterdam";23;"Groot-Amsterdam";15;"Zuid-Noord-Holland";21;"Agglomeratie Amsterdam";0;"Hildebrand v Loonschool";"AMSTERDAM";"Noord-Holland";"PO2707";81810;234;121;113;234;0;0;1;234;121;113;234;0;0;1;0;0;0;0;0;0;0;52.3546383;4.877764;0.427350427350427;"br />  <br /> 234 <br /> 0.427350427350427"
"20";"08CA";"Noord-Holland";40586;"Watergraafsmeerse Schoolvereniging";"Copernicusstraat";"38-40";"1098 JH";"AMSTERDAM";363;"AMSTERDAM";"Algemeen bijzonder";206947481;"                                                                                ";"Postbus";"95028";"1090 HA";"AMSTERDAM";44;"Amsterdam";20;"Zuidelijk Noord-Holland";21;"Agglomeratie Amsterdam";23;"Groot-Amsterdam";15;"Zuid-Noord-Holland";21;"Agglomeratie Amsterdam";0;"Watergraafsmeerse Sch";"AMSTERDAM";"Noord-Holland";"PO2707";40586;436;222;214;436;0;0;64;436;222;214;436;0;0;64;0;0;0;0;0;0;0;52.3545654;4.9374033;14.6788990825688;"br />  <br /> 436 <br /> 14.6788990825688"
"21";"08CB";"Noord-Holland";94433;"Vrije Schoolgemeenschap Geert Groote School";"Hygieaplein";"47";"1076 RS";"AMSTERDAM";363;"AMSTERDAM";"Antroposofisch";206716090;"www.geertgrooteschool.nl";"Postbus";"75754";"1070 AT";"AMSTERDAM";44;"Amsterdam";20;"Zuidelijk Noord-Holland";21;"Agglomeratie Amsterdam";23;"Groot-Amsterdam";15;"Zuid-Noord-Holland";21;"Agglomeratie Amsterdam";0;"Geert Groote School";"AMSTERDAM";"Noord-Holland";"PO2707";94433;369;231;138;369;0;0;13;369;231;138;369;0;0;13;0;0;0;0;0;0;0;52.3476777;4.8644592;3.5230352303523;"br />  <br /> 369 <br /> 3.5230352303523"
"22";"08KC";"Noord-Holland";27770;"Rooms Katholieke Basisschool Sint Henricusschool";"Louis Naarstigstraat";"1";"1063 EN";"AMSTERDAM";363;"AMSTERDAM";"Rooms-Katholiek";206133854;"www.sthenricus.nl";"Louis Naarstigstraat";"1";"1063 EN";"AMSTERDAM";44;"Amsterdam";20;"Zuidelijk Noord-Holland";21;"Agglomeratie Amsterdam";23;"Groot-Amsterdam";15;"Zuid-Noord-Holland";21;"Agglomeratie Amsterdam";0;"St Henricusschool";"AMSTERDAM";"Noord-Holland";"PO2707";27770;252;124;128;210;5;37;188;249;122;127;208;4;37;187;3;2;1;2;1;0;1;52.3837871;4.8282972;74.6031746031746;"br />  <br /> 252 <br /> 74.6031746031746"
"23";"08KR";"Noord-Holland";27770;"Oecumenische Basisschool De Ark";"Zuid-Hollandstraat";"7";"1082 EK";"AMSTERDAM";363;"AMSTERDAM";"Interconfessioneel";206426212;"www.de-ark.net";"Zuid-Hollandstraat";"7";"1082 EK";"AMSTERDAM";44;"Amsterdam";20;"Zuidelijk Noord-Holland";21;"Agglomeratie Amsterdam";23;"Groot-Amsterdam";15;"Zuid-Noord-Holland";21;"Agglomeratie Amsterdam";0;"Oec Basisschool De Ark";"AMSTERDAM";"Noord-Holland";"PO2707";27770;229;116;113;224;2;3;68;229;116;113;224;2;3;68;0;0;0;0;0;0;0;52.3265724;4.8749969;29.6943231441048;"br />  <br /> 229 <br /> 29.6943231441048"
"24";"08NU";"Noord-Holland";30320;"Buitenveldertse Montessorisch";"Sandenburch";"1-3";"1082 GN";"AMSTERDAM";363;"AMSTERDAM";"Algemeen bijzonder";206448446;"www.bms-school.nl";"Sandenburch";"1-3";"1082 GN";"AMSTERDAM";44;"Amsterdam";20;"Zuidelijk Noord-Holland";21;"Agglomeratie Amsterdam";23;"Groot-Amsterdam";15;"Zuid-Noord-Holland";21;"Agglomeratie Amsterdam";0;"Buitenv Montessorisch";"AMSTERDAM";"Noord-Holland";"PO2707";30320;194;98;96;194;0;0;50;194;98;96;194;0;0;50;0;0;0;0;0;0;0;52.325542;4.8791685;25.7731958762887;"br />  <br /> 194 <br /> 25.7731958762887"
"25";"08VA";"Noord-Holland";28614;"Tweede Openluchtschool voor het Gezonde Kind";"Fred. Roeskestraat";"76";"1076 ED";"AMSTERDAM";363;"AMSTERDAM";"Algemeen bijzonder";206793858;"www.openluchtschool2.nl";"Fred. Roeskestraat";"76";"1076 ED";"AMSTERDAM";44;"Amsterdam";20;"Zuidelijk Noord-Holland";21;"Agglomeratie Amsterdam";23;"Groot-Amsterdam";15;"Zuid-Noord-Holland";21;"Agglomeratie Amsterdam";0;"Tweede Openluchtschool";"AMSTERDAM";"Noord-Holland";"PO2707";28614;225;117;108;225;0;0;16;225;117;108;225;0;0;16;0;0;0;0;0;0;0;52.3412556;4.8637018;7.11111111111111;"br />  <br /> 225 <br /> 7.11111111111111"
"26";"08ZE";"Noord-Holland";41023;"Basisschool Monseigneur Bekkers";"Volendammerweg";"160";"1024 JR";"AMSTERDAM";363;"AMSTERDAM";"Rooms-Katholiek";206365923;"www.bekkersschool.nl";"Volendammerweg";"160";"1024 JR";"AMSTERDAM";44;"Amsterdam";20;"Zuidelijk Noord-Holland";21;"Agglomeratie Amsterdam";23;"Groot-Amsterdam";15;"Zuid-Noord-Holland";21;"Agglomeratie Amsterdam";0;"Basisschool Mgr Bekkers";"AMSTERDAM";"Noord-Holland";"PO2707";41023;242;127;115;193;11;38;111;242;127;115;193;11;38;111;0;0;0;0;0;0;0;52.3918612;4.9592149;45.8677685950413;"br />  <br /> 242 <br /> 45.8677685950413"
"27";"09DD";"Noord-Holland";94433;"Geert Groote School";"Fred. Roeskestraat";"82";"1076 ED";"AMSTERDAM";363;"AMSTERDAM";"Antroposofisch";206750419;"www.geertgrooteschool.nl";"Postbus";"75754";"1070 AT";"AMSTERDAM";44;"Amsterdam";20;"Zuidelijk Noord-Holland";21;"Agglomeratie Amsterdam";23;"Groot-Amsterdam";15;"Zuid-Noord-Holland";21;"Agglomeratie Amsterdam";0;"Geert Groote School";"AMSTERDAM";"Noord-Holland";"PO2707";94433;403;229;174;402;1;0;15;403;229;174;402;1;0;15;0;0;0;0;0;0;0;52.341587;4.8630928;3.72208436724566;"br />  <br /> 403 <br /> 3.72208436724566"
"28";"09JY";"Noord-Holland";27770;"Katholieke Basisschool De Springplank";"Robert Scottstraat";"28-34";"1056 AZ";"AMSTERDAM";363;"AMSTERDAM";"Rooms-Katholiek";206162553;"www.kbsdespringplank.nl";"Robert Scottstraat";"28-34";"1056 AZ";"AMSTERDAM";44;"Amsterdam";20;"Zuidelijk Noord-Holland";21;"Agglomeratie Amsterdam";23;"Groot-Amsterdam";15;"Zuid-Noord-Holland";21;"Agglomeratie Amsterdam";0;"Kbs De Springplank";"AMSTERDAM";"Noord-Holland";"PO2707";27770;220;96;124;144;9;67;159;219;96;123;143;9;67;158;1;0;1;1;0;0;1;52.373499;4.8464286;72.2727272727273;"br />  <br /> 220 <br /> 72.2727272727273"
"29";"09MQ";"Noord-Holland";48622;"Amsterdamse Montessorischool";"Willem Witsenstraat";"14";"1077 AZ";"AMSTERDAM";363;"AMSTERDAM";"Algemeen bijzonder";203057878;"www.de-ams.nl";"Willem Witsenstraat";"14";"1077 AZ";"AMSTERDAM";44;"Amsterdam";20;"Zuidelijk Noord-Holland";21;"Agglomeratie Amsterdam";23;"Groot-Amsterdam";15;"Zuid-Noord-Holland";21;"Agglomeratie Amsterdam";0;"A'damse Montessorischool";"AMSTERDAM";"Noord-Holland";"PO2707";48622;299;149;150;299;0;0;0;299;149;150;299;0;0;0;0;0;0;0;0;0;0;52.3509302;4.8703358;0;"br />  <br /> 299 <br /> 0"
"30";"09ZI";"Noord-Holland";81316;"Oecumenische basisschool Nelson Mandela School";"Laing's Nekstraat";"44";"1092 GX";"AMSTERDAM";363;"AMSTERDAM";"Protestants-Christelijk";206942768;"www.nelsonmandelaschool.nl";"Laing's Nekstraat";"44";"1092 GX";"AMSTERDAM";44;"Amsterdam";20;"Zuidelijk Noord-Holland";21;"Agglomeratie Amsterdam";23;"Groot-Amsterdam";15;"Zuid-Noord-Holland";21;"Agglomeratie Amsterdam";0;"Nelson Mandela School";"AMSTERDAM";"Noord-Holland";"PO2707";81316;139;56;83;93;17;29;75;138;56;82;93;16;29;74;1;0;1;0;1;0;1;52.3546279;4.923326;53.9568345323741;"br />  <br /> 139 <br /> 53.9568345323741"
"31";"10OW";"Noord-Holland";41023;"Antonius";"Lastageweg";"50";"1011 DB";"AMSTERDAM";363;"AMSTERDAM";"Rooms-Katholiek";206238963;"www.sint-antoniusschool.nl";"Lastageweg";"50";"1011 DB";"AMSTERDAM";44;"Amsterdam";20;"Zuidelijk Noord-Holland";21;"Agglomeratie Amsterdam";23;"Groot-Amsterdam";15;"Zuid-Noord-Holland";21;"Agglomeratie Amsterdam";0;"Antonius";"AMSTERDAM";"Noord-Holland";"PO2707";41023;207;100;107;201;2;4;48;207;100;107;201;2;4;48;0;0;0;0;0;0;0;52.3731754;4.9023387;23.1884057971014;"br />  <br /> 207 <br /> 23.1884057971014"
"32";"10RG";"Noord-Holland";41595;"Jan Woudsmaschool";"Jaargetijden";"4";"1109 AR";"AMSTERDAM";363;"AMSTERDAM";"Protestants-Christelijk";294450190;"www.janwoudsmaschool.nl";"Jaargetijden";"4";"1109 AR";"AMSTERDAM";44;"Amsterdam";20;"Zuidelijk Noord-Holland";21;"Agglomeratie Amsterdam";23;"Groot-Amsterdam";15;"Zuid-Noord-Holland";21;"Agglomeratie Amsterdam";0;"Jan Woudsmaschool";"AMSTERDAM";"Noord-Holland";"PO2707";41595;150;69;81;150;0;0;0;150;69;81;150;0;0;0;0;0;0;0;0;0;0;52.3054071;5.0193929;0;"br />  <br /> 150 <br /> 0"
"33";"11LY";"Noord-Holland";81316;"Oecumenische Basisschool Frankendael";"Hogeweg";"61";"1098 CA";"AMSTERDAM";363;"AMSTERDAM";"Protestants-Christelijk";204638100;"www.frankendaelschool.nl";"Hogeweg";"61-63";"1098 CA";"AMSTERDAM";44;"Amsterdam";20;"Zuidelijk Noord-Holland";21;"Agglomeratie Amsterdam";23;"Groot-Amsterdam";15;"Zuid-Noord-Holland";21;"Agglomeratie Amsterdam";0;"Frankendael";"AMSTERDAM";"Noord-Holland";"PO2707";81316;266;165;101;251;3;12;75;266;165;101;251;3;12;75;0;0;0;0;0;0;0;52.3561722;4.9345246;28.1954887218045;"br />  <br /> 266 <br /> 28.1954887218045"
"34";"11WV";"Noord-Holland";43864;"Onze Wereld";"Kortvoort";"61-E";"1104 NA";"AMSTERDAM";363;"AMSTERDAM";"Samenwerking PC, RK";206907305;"                                                                                ";"Kortvoort";"61-E";"1104 NA";"AMSTERDAM";44;"Amsterdam";20;"Zuidelijk Noord-Holland";21;"Agglomeratie Amsterdam";23;"Groot-Amsterdam";15;"Zuid-Noord-Holland";21;"Agglomeratie Amsterdam";0;"Onze Wereld";"AMSTERDAM";"Noord-Holland";"PO2707";43864;165;86;79;115;27;23;65;165;86;79;115;27;23;65;0;0;0;0;0;0;0;52.315838;4.970323;39.3939393939394;"br />  <br /> 165 <br /> 39.3939393939394"
"35";"12GF";"Noord-Holland";43864;"Polsstok";"EGoli";"2";"1103 AC";"AMSTERDAM";363;"AMSTERDAM";"Samenwerking PC, RK";206951360;"www.polsstok.nl";"EGoli";"2";"1103 AC";"AMSTERDAM";44;"Amsterdam";20;"Zuidelijk Noord-Holland";21;"Agglomeratie Amsterdam";23;"Groot-Amsterdam";15;"Zuid-Noord-Holland";21;"Agglomeratie Amsterdam";0;"Polsstok";"AMSTERDAM";"Noord-Holland";"PO2707";43864;363;180;183;286;25;52;118;362;179;183;285;25;52;117;1;1;0;1;0;0;1;52.3224559;4.9602435;32.5068870523416;"br />  <br /> 363 <br /> 32.5068870523416"
"36";"12LG";"Noord-Holland";81316;"Oecumenische basisschool Oranje Nassau";"Ribesstraat";"13-15";"1032 JR";"AMSTERDAM";363;"AMSTERDAM";"Protestants-Christelijk";206360005;"www.onassauschool.nl";"Ribesstraat";"13-15";"1032 JR";"AMSTERDAM";44;"Amsterdam";20;"Zuidelijk Noord-Holland";21;"Agglomeratie Amsterdam";23;"Groot-Amsterdam";15;"Zuid-Noord-Holland";21;"Agglomeratie Amsterdam";0;"Oranje Nassau";"AMSTERDAM";"Noord-Holland";"PO2707";81316;208;106;102;163;22;23;100;207;105;102;162;22;23;100;1;1;0;1;0;0;0;52.3932372;4.9160319;48.0769230769231;"br />  <br /> 208 <br /> 48.0769230769231"
"37";"12ON";"Noord-Holland";81316;"Oecumenische basisschool Nautilus";"Theophile de Bockstraat";"100-C";"1058 VC";"AMSTERDAM";363;"AMSTERDAM";"Protestants-Christelijk";206173656;"www.denautilus.net";"Theophile de Bockstraat";"100-C";"1058 VC";"AMSTERDAM";44;"Amsterdam";20;"Zuidelijk Noord-Holland";21;"Agglomeratie Amsterdam";23;"Groot-Amsterdam";15;"Zuid-Noord-Holland";21;"Agglomeratie Amsterdam";0;"Nautilus";"AMSTERDAM";"Noord-Holland";"PO2707";81316;235;141;94;212;9;14;15;234;140;94;211;9;14;15;1;1;0;1;0;0;0;52.3550856;4.8459576;6.38297872340426;"br />  <br /> 235 <br /> 6.38297872340426"
"38";"12TM";"Noord-Holland";81316;"Oecumenische basisschool de Driemaster";"Binnenvaart";"1";"1034 SG";"AMSTERDAM";363;"AMSTERDAM";"Protestants-Christelijk";206319882;"www.3master.nl";"Binnenvaart";"1";"1034 SG";"AMSTERDAM";44;"Amsterdam";20;"Zuidelijk Noord-Holland";21;"Agglomeratie Amsterdam";23;"Groot-Amsterdam";15;"Zuid-Noord-Holland";21;"Agglomeratie Amsterdam";0;"de Driemaster";"AMSTERDAM";"Noord-Holland";"PO2707";81316;359;187;172;311;15;33;182;359;187;172;311;15;33;182;0;0;0;0;0;0;0;52.4090557;4.9184297;50.6963788300836;"br />  <br /> 359 <br /> 50.6963788300836"
"39";"12WS";"Noord-Holland";43864;"Oecumenische Basisschool Achtsprong";"Flierbosdreef";"101";"1102 BV";"AMSTERDAM";363;"AMSTERDAM";"Samenwerking PC, RK";206967257;"www.achtsprong.nl";"Flierbosdreef";"101";"1102 BV";"AMSTERDAM";44;"Amsterdam";20;"Zuidelijk Noord-Holland";21;"Agglomeratie Amsterdam";23;"Groot-Amsterdam";15;"Zuid-Noord-Holland";21;"Agglomeratie Amsterdam";0;"Oec Basissch Achtsprong";"AMSTERDAM";"Noord-Holland";"PO2707";43864;248;135;113;145;39;64;144;246;135;111;145;39;62;144;2;0;2;0;0;2;0;52.3127964;4.9583235;58.0645161290323;"br />  <br /> 248 <br /> 58.0645161290323"
"40";"12ZS";"Noord-Holland";81316;"P. Chr. basisschool Immanuel";"Jan de Louterstraat";"90";"1063 KX";"AMSTERDAM";363;"AMSTERDAM";"Protestants-Christelijk";206131883;"www.immanuelschool.nl";"Jan de Louterstraat";"90";"1063 KX";"AMSTERDAM";44;"Amsterdam";20;"Zuidelijk Noord-Holland";21;"Agglomeratie Amsterdam";23;"Groot-Amsterdam";15;"Zuid-Noord-Holland";21;"Agglomeratie Amsterdam";0;"Immanuel";"AMSTERDAM";"Noord-Holland";"PO2707";81316;191;93;98;139;14;38;159;191;93;98;139;14;38;159;0;0;0;0;0;0;0;52.3808486;4.817428;83.2460732984293;"br />  <br /> 191 <br /> 83.2460732984293"
"41";"13CD";"Noord-Holland";81316;"Oecumenische basisschool Wereldschool Amsterdam";"Revaleiland";"1-A";"1014 ZG";"AMSTERDAM";363;"AMSTERDAM";"Protestants-Christelijk";206829907;"www.wereldschoolamsterdam.nl";"Revaleiland";"1-A";"1014 ZG";"AMSTERDAM";44;"Amsterdam";20;"Zuidelijk Noord-Holland";21;"Agglomeratie Amsterdam";23;"Groot-Amsterdam";15;"Zuid-Noord-Holland";21;"Agglomeratie Amsterdam";0;"Wereldschool Amsterdam";"AMSTERDAM";"Noord-Holland";"PO2707";81316;340;184;156;311;12;17;102;336;183;153;307;12;17;101;4;1;3;4;0;0;1;52.392929;4.8790628;30;"br />  <br /> 340 <br /> 30"
"42";"13CN";"Noord-Holland";43864;"Knotwilg";"Vreeswijkpad";"5";"1106 DV";"AMSTERDAM";363;"AMSTERDAM";"Samenwerking PC, RK";206973510;"www.knotwilg.nl";"Vreeswijkpad";"5";"1106 DV";"AMSTERDAM";44;"Amsterdam";20;"Zuidelijk Noord-Holland";21;"Agglomeratie Amsterdam";23;"Groot-Amsterdam";15;"Zuid-Noord-Holland";21;"Agglomeratie Amsterdam";0;"Knotwilg";"AMSTERDAM";"Noord-Holland";"PO2707";43864;265;122;143;218;23;24;88;263;122;141;217;22;24;86;2;0;2;1;1;0;2;52.2974647;4.9843785;33.2075471698113;"br />  <br /> 265 <br /> 33.2075471698113"
"43";"13FM";"Noord-Holland";81316;"Oecumenische basisschool de Visserschool";"Columbusplein";"34";"1057 VB";"AMSTERDAM";363;"AMSTERDAM";"Protestants-Christelijk";206180481;"www.devisserschool.nl";"Columbusplein";"34";"1057 VB";"AMSTERDAM";44;"Amsterdam";20;"Zuidelijk Noord-Holland";21;"Agglomeratie Amsterdam";23;"Groot-Amsterdam";15;"Zuid-Noord-Holland";21;"Agglomeratie Amsterdam";0;"De Visserschool";"AMSTERDAM";"Noord-Holland";"PO2707";81316;203;138;65;167;3;33;112;203;138;65;167;3;33;112;0;0;0;0;0;0;0;52.3667878;4.8548372;55.1724137931034;"br />  <br /> 203 <br /> 55.1724137931034"
"44";"13FR";"Noord-Holland";81316;"Oecumenische basisschool Valentijn";"Soembawastraat";"63";"1095 VZ";"AMSTERDAM";363;"AMSTERDAM";"Protestants-Christelijk";206656723;"www.devalentijnschool.nl";"Soembawastraat";"63";"1095 VZ";"AMSTERDAM";44;"Amsterdam";20;"Zuidelijk Noord-Holland";21;"Agglomeratie Amsterdam";23;"Groot-Amsterdam";15;"Zuid-Noord-Holland";21;"Agglomeratie Amsterdam";0;"Valentijn";"AMSTERDAM";"Noord-Holland";"PO2707";81316;96;36;60;54;7;35;80;96;36;60;54;7;35;80;0;0;0;0;0;0;0;52.3630769;4.9439681;83.3333333333333;"br />  <br /> 96 <br /> 83.3333333333333"
"45";"13HX";"Noord-Holland";43864;"Samenspel (locatie Kantershof)";"Kantershof";"636";"1104 HJ";"AMSTERDAM";363;"AMSTERDAM";"Samenwerking PC, RK";204165195;"www.bssamenspel.nl";"Kantershof";"636";"1104 HJ";"AMSTERDAM";44;"Amsterdam";20;"Zuidelijk Noord-Holland";21;"Agglomeratie Amsterdam";23;"Groot-Amsterdam";15;"Zuid-Noord-Holland";21;"Agglomeratie Amsterdam";0;"Samenspel (loc. Kantershof)";"AMSTERDAM";"Noord-Holland";"PO2707";43864;349;69;280;255;48;46;146;349;69;280;255;48;46;146;0;0;0;0;0;0;0;52.3192104;4.9856334;41.8338108882521;"br />  <br /> 349 <br /> 41.8338108882521"
"46";"13HX";"Noord-Holland";43864;"Samenspel (locatie Kantershof)";"Kantershof";"636";"1104 HJ";"AMSTERDAM";363;"AMSTERDAM";"Samenwerking PC, RK";204165195;"www.bssamenspel.nl";"Kantershof";"636";"1104 HJ";"AMSTERDAM";44;"Amsterdam";20;"Zuidelijk Noord-Holland";21;"Agglomeratie Amsterdam";23;"Groot-Amsterdam";15;"Zuid-Noord-Holland";21;"Agglomeratie Amsterdam";2;"Samenspel (loc. Kantershof)";"AMSTERDAM";"Noord-Holland";"PO2707";43864;182;177;5;120;24;38;84;182;177;5;120;24;38;84;0;0;0;0;0;0;0;52.3192104;4.9856334;46.1538461538462;"br />  <br /> 182 <br /> 46.1538461538462"
"47";"13KX";"Noord-Holland";81316;"Oecumenische basisschool Ichthus";"Louis Davidsstraat";"101";"1068 SJ";"AMSTERDAM";363;"AMSTERDAM";"Protestants-Christelijk";206191243;"www.deichthusschool.nl";"Louis Davidsstraat";"101";"1068 SJ";"AMSTERDAM";44;"Amsterdam";20;"Zuidelijk Noord-Holland";21;"Agglomeratie Amsterdam";23;"Groot-Amsterdam";15;"Zuid-Noord-Holland";21;"Agglomeratie Amsterdam";0;"Ichthusschool";"AMSTERDAM";"Noord-Holland";"PO2707";81316;356;220;136;325;10;21;147;356;220;136;325;10;21;147;0;0;0;0;0;0;0;52.3520256;4.8102567;41.2921348314607;"br />  <br /> 356 <br /> 41.2921348314607"
"48";"13MS";"Noord-Holland";81316;"Oecumenische basisschool Dr Rijk Kramer";"Nassaukade";"124";"1052 EC";"AMSTERDAM";363;"AMSTERDAM";"Protestants-Christelijk";206820837;"www.rijkkramer.nl";"Nassaukade";"124";"1052 EC";"AMSTERDAM";44;"Amsterdam";20;"Zuidelijk Noord-Holland";21;"Agglomeratie Amsterdam";23;"Groot-Amsterdam";15;"Zuid-Noord-Holland";21;"Agglomeratie Amsterdam";1;"Dr Rijk Kramer";"AMSTERDAM";"Noord-Holland";"PO2707";81316;148;72;76;129;11;8;54;147;72;75;128;11;8;54;1;0;1;1;0;0;0;52.3737856;4.8743868;36.4864864864865;"br />  <br /> 148 <br /> 36.4864864864865"
"49";"13MS";"Noord-Holland";81316;"Oecumenische basisschool Dr Rijk Kramer";"Nassaukade";"124";"1052 EC";"AMSTERDAM";363;"AMSTERDAM";"Protestants-Christelijk";206820837;"www.rijkkramer.nl";"Nassaukade";"124";"1052 EC";"AMSTERDAM";44;"Amsterdam";20;"Zuidelijk Noord-Holland";21;"Agglomeratie Amsterdam";23;"Groot-Amsterdam";15;"Zuid-Noord-Holland";21;"Agglomeratie Amsterdam";0;"Dr Rijk Kramer";"AMSTERDAM";"Noord-Holland";"PO2707";81316;483;240;243;467;4;12;76;483;240;243;467;4;12;76;0;0;0;0;0;0;0;52.3737856;4.8743868;15.7349896480331;"br />  <br /> 483 <br /> 15.7349896480331"
"50";"13MZ";"Noord-Holland";43864;"Klaverblad";"Darlingstraat";"1";"1102 MX";"AMSTERDAM";363;"AMSTERDAM";"Samenwerking PC, RK";206950062;"www.bsklaverblad.nl";"Darlingstraat";"1";"1102 MX";"AMSTERDAM";44;"Amsterdam";20;"Zuidelijk Noord-Holland";21;"Agglomeratie Amsterdam";23;"Groot-Amsterdam";15;"Zuid-Noord-Holland";21;"Agglomeratie Amsterdam";0;"Klaverblad";"AMSTERDAM";"Noord-Holland";"PO2707";43864;277;158;119;171;55;51;103;277;158;119;171;55;51;103;0;0;0;0;0;0;0;52.3198629;4.9498049;37.1841155234657;"br />  <br /> 277 <br /> 37.1841155234657"
"51";"13PR";"Noord-Holland";81316;"Oecumenische basisschool Professor Dr. H. Kraemer";"Nieuwe Laan";"34";"1068 BZ";"AMSTERDAM";363;"AMSTERDAM";"Protestants-Christelijk";206190094;"www.kraemerschool.nl";"Nieuwe Laan";"34";"1068 BZ";"AMSTERDAM";44;"Amsterdam";20;"Zuidelijk Noord-Holland";21;"Agglomeratie Amsterdam";23;"Groot-Amsterdam";15;"Zuid-Noord-Holland";21;"Agglomeratie Amsterdam";0;"Prof. Dr. H. Kraemer";"AMSTERDAM";"Noord-Holland";"PO2707";81316;199;103;96;129;8;62;162;199;103;96;129;8;62;162;0;0;0;0;0;0;0;52.3628298;4.7990519;81.4070351758794;"br />  <br /> 199 <br /> 81.4070351758794"
"52";"13RO";"Noord-Holland";43864;"Mobiel";"Reigersbos";"313";"1107 EZ";"AMSTERDAM";363;"AMSTERDAM";"Samenwerking PC, RK";206973735;"www.bsmobiel.nl";"Reigersbos";"313";"1107 EZ";"AMSTERDAM";44;"Amsterdam";20;"Zuidelijk Noord-Holland";21;"Agglomeratie Amsterdam";23;"Groot-Amsterdam";15;"Zuid-Noord-Holland";21;"Agglomeratie Amsterdam";0;"Mobiel";"AMSTERDAM";"Noord-Holland";"PO2707";43864;243;124;119;194;23;26;79;243;124;119;194;23;26;79;0;0;0;0;0;0;0;52.2940195;4.9757173;32.5102880658436;"br />  <br /> 243 <br /> 32.5102880658436"
"53";"13TM";"Noord-Holland";81316;"Oecumenische basisschool Timotheusschool";"Sam van Houtenstraat";"2";"1067 JM";"AMSTERDAM";363;"AMSTERDAM";"Protestants-Christelijk";206132699;"www.timotheusschool.nl";"Sam van Houtenstraat";"2";"1067 JM";"AMSTERDAM";44;"Amsterdam";20;"Zuidelijk Noord-Holland";21;"Agglomeratie Amsterdam";23;"Groot-Amsterdam";15;"Zuid-Noord-Holland";21;"Agglomeratie Amsterdam";0;"Timotheusschool";"AMSTERDAM";"Noord-Holland";"PO2707";81316;498;267;231;356;38;104;394;498;267;231;356;38;104;394;0;0;0;0;0;0;0;52.3796026;4.8053169;79.1164658634538;"br />  <br /> 498 <br /> 79.1164658634538"
"54";"13VH";"Noord-Holland";81316;"Oecumenische basisschool Pro Rege school";"Hemsterhuisstraat";"87-A";"1065 JX";"AMSTERDAM";363;"AMSTERDAM";"Protestants-Christelijk";206152736;"www.proregeschool.nl";"Hemsterhuisstraat";"87-A";"1065 JX";"AMSTERDAM";44;"Amsterdam";20;"Zuidelijk Noord-Holland";21;"Agglomeratie Amsterdam";23;"Groot-Amsterdam";15;"Zuid-Noord-Holland";21;"Agglomeratie Amsterdam";0;"Pro Rege school";"AMSTERDAM";"Noord-Holland";"PO2707";81316;575;296;279;557;7;11;218;575;296;279;557;7;11;218;0;0;0;0;0;0;0;52.3609105;4.8228241;37.9130434782609;"br />  <br /> 575 <br /> 37.9130434782609"
"55";"13WU";"Noord-Holland";41023;"Montessori Basisschool de Regenboog";"Woudrichemstraat";"3-5";"1107 NE";"AMSTERDAM";363;"AMSTERDAM";"Rooms-Katholiek";206972176;"www.regenboogamsterdam.net";"Woudrichemstraat";"3-5";"1107 NE";"AMSTERDAM";44;"Amsterdam";20;"Zuidelijk Noord-Holland";21;"Agglomeratie Amsterdam";23;"Groot-Amsterdam";15;"Zuid-Noord-Holland";21;"Agglomeratie Amsterdam";0;"De Regenboog";"AMSTERDAM";"Noord-Holland";"PO2707";41023;227;118;109;206;3;18;65;225;116;109;204;3;18;65;2;2;0;2;0;0;0;52.293572;4.9867444;28.6343612334802;"br />  <br /> 227 <br /> 28.6343612334802"
"56";"13WX";"Noord-Holland";81316;"P. Chr. Johannesschool";"Evertsweertplantsoen";"3-B";"1069 RK";"AMSTERDAM";363;"AMSTERDAM";"Protestants-Christelijk";206190466;"www.johannesschool.com";"Evertsweertplantsoen";"3-B";"1069 RK";"AMSTERDAM";44;"Amsterdam";20;"Zuidelijk Noord-Holland";21;"Agglomeratie Amsterdam";23;"Groot-Amsterdam";15;"Zuid-Noord-Holland";21;"Agglomeratie Amsterdam";0;"Johannesschool";"AMSTERDAM";"Noord-Holland";"PO2707";81316;192;87;105;117;13;62;151;192;87;105;117;13;62;151;0;0;0;0;0;0;0;52.3560519;4.7934316;78.6458333333333;"br />  <br /> 192 <br /> 78.6458333333333"
"57";"14AI";"Noord-Holland";81316;"Oecumenische basisschool  Noordmansschool";"Louis Couperusstraat";"131";"1064 CE";"AMSTERDAM";363;"AMSTERDAM";"Protestants-Christelijk";206133545;"www.noordmansschool.nl";"Louis Couperusstraat";"131";"1064 CE";"AMSTERDAM";44;"Amsterdam";20;"Zuidelijk Noord-Holland";21;"Agglomeratie Amsterdam";23;"Groot-Amsterdam";15;"Zuid-Noord-Holland";21;"Agglomeratie Amsterdam";0;"Noordmansschool";"AMSTERDAM";"Noord-Holland";"PO2707";81316;268;79;189;187;11;70;230;265;79;186;185;11;69;229;3;0;3;2;0;1;1;52.3759128;4.8242845;85.8208955223881;"br />  <br /> 268 <br /> 85.8208955223881"
"58";"14DP";"Noord-Holland";81316;"Oecumenische Jenaplan basisschool Atlantis";"Schuitenhuisstraat";"5";"1069 WK";"AMSTERDAM";363;"AMSTERDAM";"Protestants-Christelijk";206670001;"www.jenaplanschoolatlantis.nl";"Schuitenhuisstraat";"5";"1069 WK";"AMSTERDAM";44;"Amsterdam";20;"Zuidelijk Noord-Holland";21;"Agglomeratie Amsterdam";23;"Groot-Amsterdam";15;"Zuid-Noord-Holland";21;"Agglomeratie Amsterdam";0;"Atlantis";"AMSTERDAM";"Noord-Holland";"PO2707";81316;214;120;94;195;3;16;117;214;120;94;195;3;16;117;0;0;0;0;0;0;0;52.3575013;4.786777;54.6728971962617;"br />  <br /> 214 <br /> 54.6728971962617"
"59";"14GL";"Noord-Holland";81316;"Oecumenische basisschool De Kinderboom";"Adelaarsweg";"113";"1021 BZ";"AMSTERDAM";363;"AMSTERDAM";"Protestants-Christelijk";206368172;"www.dekinderboom.nl";"Adelaarsweg";"113";"1021 BZ";"AMSTERDAM";44;"Amsterdam";20;"Zuidelijk Noord-Holland";21;"Agglomeratie Amsterdam";23;"Groot-Amsterdam";15;"Zuid-Noord-Holland";21;"Agglomeratie Amsterdam";0;"De Kinderboom";"AMSTERDAM";"Noord-Holland";"PO2707";81316;167;83;84;83;33;51;110;167;83;84;83;33;51;110;0;0;0;0;0;0;0;52.3886074;4.9202676;65.8682634730539;"br />  <br /> 167 <br /> 65.8682634730539"
"60";"14JC";"Noord-Holland";81316;"Oecumenische basisschool De Capelle";"Rode Kruisstraat";"18";"1025 KN";"AMSTERDAM";363;"AMSTERDAM";"Protestants-Christelijk";206367723;"www.decapelle.nl";"Rode Kruisstraat";"18";"1025 KN";"AMSTERDAM";44;"Amsterdam";20;"Zuidelijk Noord-Holland";21;"Agglomeratie Amsterdam";23;"Groot-Amsterdam";15;"Zuid-Noord-Holland";21;"Agglomeratie Amsterdam";1;"De Capelle";"AMSTERDAM";"Noord-Holland";"PO2707";81316;223;108;115;211;4;8;85;223;108;115;211;4;8;85;0;0;0;0;0;0;0;52.3942368;4.9322995;38.1165919282511;"br />  <br /> 223 <br /> 38.1165919282511"
"61";"14JC";"Noord-Holland";81316;"Oecumenische basisschool De Capelle";"Rode Kruisstraat";"18";"1025 KN";"AMSTERDAM";363;"AMSTERDAM";"Protestants-Christelijk";206367723;"www.decapelle.nl";"Rode Kruisstraat";"18";"1025 KN";"AMSTERDAM";44;"Amsterdam";20;"Zuidelijk Noord-Holland";21;"Agglomeratie Amsterdam";23;"Groot-Amsterdam";15;"Zuid-Noord-Holland";21;"Agglomeratie Amsterdam";0;"De Capelle";"AMSTERDAM";"Noord-Holland";"PO2707";81316;224;133;91;180;38;6;48;224;133;91;180;38;6;48;0;0;0;0;0;0;0;52.3942368;4.9322995;21.4285714285714;"br />  <br /> 224 <br /> 21.4285714285714"
"62";"14LP";"Noord-Holland";81316;"Oecumenische basisschool De Vijf Sterren";"Markengouw";"245-A";"1024 EA";"AMSTERDAM";363;"AMSTERDAM";"Protestants-Christelijk";206367624;"www.basisschooldevijfsterren.nl";"Markengouw";"245-A";"1024 EA";"AMSTERDAM";44;"Amsterdam";20;"Zuidelijk Noord-Holland";21;"Agglomeratie Amsterdam";23;"Groot-Amsterdam";15;"Zuid-Noord-Holland";21;"Agglomeratie Amsterdam";0;"De Vijf Sterren";"AMSTERDAM";"Noord-Holland";"PO2707";81316;378;188;190;210;72;96;227;378;188;190;210;72;96;227;0;0;0;0;0;0;0;52.3943665;4.9594025;60.0529100529101;"br />  <br /> 378 <br /> 60.0529100529101"
"63";"15RG";"Noord-Holland";41023;"St Jozef-School";"Kalfjeslaan";"370";"1081 JA";"AMSTERDAM";363;"AMSTERDAM";"Rooms-Katholiek";206432020;"www.sintjozefschoolamsterdam.nl";"Kalfjeslaan";"370";"1081 JA";"AMSTERDAM";44;"Amsterdam";20;"Zuidelijk Noord-Holland";21;"Agglomeratie Amsterdam";23;"Groot-Amsterdam";15;"Zuid-Noord-Holland";21;"Agglomeratie Amsterdam";0;"St Jozef-School";"AMSTERDAM";"Noord-Holland";"PO2707";41023;474;254;220;474;0;0;42;474;254;220;474;0;0;42;0;0;0;0;0;0;0;52.322206;4.8603293;8.86075949367089;"br />  <br /> 474 <br /> 8.86075949367089"
"64";"15YE";"Noord-Holland";41023;"De Botteloef";"Overslag";"1";"1034 RR";"AMSTERDAM";363;"AMSTERDAM";"Rooms-Katholiek";206317184;"www.botteloef.nl";"Overslag";"1";"1034 RR";"AMSTERDAM";44;"Amsterdam";20;"Zuidelijk Noord-Holland";21;"Agglomeratie Amsterdam";23;"Groot-Amsterdam";15;"Zuid-Noord-Holland";21;"Agglomeratie Amsterdam";0;"De Botteloef";"AMSTERDAM";"Noord-Holland";"PO2707";41023;197;89;108;139;15;43;81;197;89;108;139;15;43;81;0;0;0;0;0;0;0;52.41087;4.9180489;41.1167512690355;"br />  <br /> 197 <br /> 41.1167512690355"
"65";"16AD";"Noord-Holland";41023;"De Boomgaard";"Gibraltarstraat";"61";"1055 NK";"AMSTERDAM";363;"AMSTERDAM";"Rooms-Katholiek";206822270;"www.boomgaardschool.nl";"Gibraltarstraat";"61";"1055 NK";"AMSTERDAM";44;"Amsterdam";20;"Zuidelijk Noord-Holland";21;"Agglomeratie Amsterdam";23;"Groot-Amsterdam";15;"Zuid-Noord-Holland";21;"Agglomeratie Amsterdam";0;"De Boomgaard";"AMSTERDAM";"Noord-Holland";"PO2707";41023;275;214;61;244;13;18;125;275;214;61;244;13;18;125;0;0;0;0;0;0;0;52.3838337;4.8500204;45.4545454545455;"br />  <br /> 275 <br /> 45.4545454545455"
"66";"16DF";"Noord-Holland";41023;"De Bron";"Van Beuningenstraat";"141";"1051 XM";"AMSTERDAM";363;"AMSTERDAM";"Rooms-Katholiek";206864913;"www.bronschool.nl";"Van Beuningenstraat";"141";"1051 XM";"AMSTERDAM";44;"Amsterdam";20;"Zuidelijk Noord-Holland";21;"Agglomeratie Amsterdam";23;"Groot-Amsterdam";15;"Zuid-Noord-Holland";21;"Agglomeratie Amsterdam";0;"De Bron";"AMSTERDAM";"Noord-Holland";"PO2707";41023;267;159;108;249;7;11;116;267;159;108;249;7;11;116;0;0;0;0;0;0;0;52.3823423;4.8744788;43.4456928838951;"br />  <br /> 267 <br /> 43.4456928838951"
"67";"16EP";"Noord-Holland";41023;"St Janschool";"Kortenaerstraat";"30";"1057 JN";"AMSTERDAM";363;"AMSTERDAM";"Rooms-Katholiek";206187481;"www.stjanschool.nl";"Kortenaerstraat";"30";"1057 JN";"AMSTERDAM";44;"Amsterdam";20;"Zuidelijk Noord-Holland";21;"Agglomeratie Amsterdam";23;"Groot-Amsterdam";15;"Zuid-Noord-Holland";21;"Agglomeratie Amsterdam";0;"St Janschool";"AMSTERDAM";"Noord-Holland";"PO2707";41023;414;230;184;372;4;38;137;414;230;184;372;4;38;137;0;0;0;0;0;0;0;52.3693916;4.8623091;33.0917874396135;"br />  <br /> 414 <br /> 33.0917874396135"
"68";"16FV";"Noord-Holland";41023;"Alan Turingschool";"Poolstraat";"2";"1018 LR";"AMSTERDAM";363;"AMSTERDAM";"Rooms-Katholiek";206224584;"                                                                                ";"Poolstraat";"2";"1018 LR";"AMSTERDAM";44;"Amsterdam";20;"Zuidelijk Noord-Holland";21;"Agglomeratie Amsterdam";23;"Groot-Amsterdam";15;"Zuid-Noord-Holland";21;"Agglomeratie Amsterdam";0;"Alan Turingschool";"AMSTERDAM";"Noord-Holland";"PO2707";41023;131;61;70;113;3;15;62;131;61;70;113;3;15;62;0;0;0;0;0;0;0;52.3707531;4.9213366;47.3282442748092;"br />  <br /> 131 <br /> 47.3282442748092"
"69";"16HF";"Noord-Holland";41023;"St Lukasschool";"Osdorper Ban";"134";"1069 ZR";"AMSTERDAM";363;"AMSTERDAM";"Rooms-Katholiek";206190966;"www.stlukasschool.nl";"Osdorper Ban";"134";"1069 ZR";"AMSTERDAM";44;"Amsterdam";20;"Zuidelijk Noord-Holland";21;"Agglomeratie Amsterdam";23;"Groot-Amsterdam";15;"Zuid-Noord-Holland";21;"Agglomeratie Amsterdam";0;"St Lukasschool";"AMSTERDAM";"Noord-Holland";"PO2707";41023;308;172;136;261;10;37;217;307;171;136;260;10;37;216;1;1;0;1;0;0;1;52.3614713;4.794182;70.4545454545455;"br />  <br /> 308 <br /> 70.4545454545455"
"70";"16HF";"Noord-Holland";41023;"St Lukasschool";"Osdorper Ban";"134";"1069 ZR";"AMSTERDAM";363;"AMSTERDAM";"Rooms-Katholiek";206190966;"www.stlukasschool.nl";"Osdorper Ban";"134";"1069 ZR";"AMSTERDAM";44;"Amsterdam";20;"Zuidelijk Noord-Holland";21;"Agglomeratie Amsterdam";23;"Groot-Amsterdam";15;"Zuid-Noord-Holland";21;"Agglomeratie Amsterdam";1;"St Lukasschool";"AMSTERDAM";"Noord-Holland";"PO2707";41023;111;45;66;85;5;21;79;111;45;66;85;5;21;79;0;0;0;0;0;0;0;52.3614713;4.794182;71.1711711711712;"br />  <br /> 111 <br /> 71.1711711711712"
"71";"16IP";"Noord-Holland";41023;"Basisschool De Satelliet";"Kometensingel";"52-54";"1033 BW";"AMSTERDAM";363;"AMSTERDAM";"Rooms-Katholiek";204930431;"www.satellietschool.nl";"Kometensingel";"52-54";"1033 BW";"AMSTERDAM";44;"Amsterdam";20;"Zuidelijk Noord-Holland";21;"Agglomeratie Amsterdam";23;"Groot-Amsterdam";15;"Zuid-Noord-Holland";21;"Agglomeratie Amsterdam";0;"Basissch De Satelliet";"AMSTERDAM";"Noord-Holland";"PO2707";41023;392;200;192;330;45;17;111;392;200;192;330;45;17;111;0;0;0;0;0;0;0;52.4147622;4.8938583;28.3163265306122;"br />  <br /> 392 <br /> 28.3163265306122"
"72";"16JU";"Noord-Holland";41023;"Rooms Katholieke Basisschool De Waaier";"Obiplein";"115";"1094 RB";"AMSTERDAM";363;"AMSTERDAM";"Rooms-Katholiek";206923980;"www.waaier.nl";"Obiplein";"115";"1094 RB";"AMSTERDAM";44;"Amsterdam";20;"Zuidelijk Noord-Holland";21;"Agglomeratie Amsterdam";23;"Groot-Amsterdam";15;"Zuid-Noord-Holland";21;"Agglomeratie Amsterdam";0;"RK Basissch De Waaier";"AMSTERDAM";"Noord-Holland";"PO2707";41023;169;70;99;107;11;51;125;169;70;99;107;11;51;125;0;0;0;0;0;0;0;52.3604091;4.9386619;73.9644970414201;"br />  <br /> 169 <br /> 73.9644970414201"
"73";"16KV";"Noord-Holland";41023;"Elisabeth Paulus-School";"Zaandijkstraat";"3";"1013 VM";"AMSTERDAM";363;"AMSTERDAM";"Rooms-Katholiek";206829249;"www.elpaulus.nl";"Zaandijkstraat";"3";"1013 VM";"AMSTERDAM";44;"Amsterdam";20;"Zuidelijk Noord-Holland";21;"Agglomeratie Amsterdam";23;"Groot-Amsterdam";15;"Zuid-Noord-Holland";21;"Agglomeratie Amsterdam";0;"Elisabeth Paulus-School";"AMSTERDAM";"Noord-Holland";"PO2707";41023;142;78;64;127;8;7;71;139;77;62;124;8;7;69;3;1;2;3;0;0;2;52.3878832;4.8796883;50;"br />  <br /> 142 <br /> 50"
"74";"16LX";"Noord-Holland";41023;"St Catharina-School";"Vechtstraat";"88";"1079 JN";"AMSTERDAM";363;"AMSTERDAM";"Rooms-Katholiek";206445066;"www.catharinaschool.nl";"Vechtstraat";"88";"1079 JN";"AMSTERDAM";44;"Amsterdam";20;"Zuidelijk Noord-Holland";21;"Agglomeratie Amsterdam";23;"Groot-Amsterdam";15;"Zuid-Noord-Holland";21;"Agglomeratie Amsterdam";0;"St Catharina-School";"AMSTERDAM";"Noord-Holland";"PO2707";41023;178;86;92;149;11;18;66;178;86;92;149;11;18;66;0;0;0;0;0;0;0;52.344675;4.906671;37.0786516853933;"br />  <br /> 178 <br /> 37.0786516853933"
"75";"16MW";"Noord-Holland";41023;"St Rosa-School";"Varenweg";"2";"1031 CB";"AMSTERDAM";363;"AMSTERDAM";"Rooms-Katholiek";206368726;"www.rosaschool.nl";"Varenweg";"2";"1031 CB";"AMSTERDAM";44;"Amsterdam";20;"Zuidelijk Noord-Holland";21;"Agglomeratie Amsterdam";23;"Groot-Amsterdam";15;"Zuid-Noord-Holland";21;"Agglomeratie Amsterdam";0;"St Rosa-School";"AMSTERDAM";"Noord-Holland";"PO2707";41023;125;51;74;74;8;43;101;125;51;74;74;8;43;101;0;0;0;0;0;0;0;52.3897446;4.916921;80.8;"br />  <br /> 125 <br /> 80.8"
"76";"17AC";"Noord-Holland";41023;"Lidwina-School";"Linnaeushof";"45";"1098 KM";"AMSTERDAM";363;"AMSTERDAM";"Rooms-Katholiek";206650769;"www.lidwinaschool.nl";"Linnaeushof";"45";"1098 KM";"AMSTERDAM";44;"Amsterdam";20;"Zuidelijk Noord-Holland";21;"Agglomeratie Amsterdam";23;"Groot-Amsterdam";15;"Zuid-Noord-Holland";21;"Agglomeratie Amsterdam";0;"Lidwina-School";"AMSTERDAM";"Noord-Holland";"PO2707";41023;561;295;266;545;5;11;123;560;294;266;544;5;11;122;1;1;0;1;0;0;1;52.352257;4.9355341;21.9251336898396;"br />  <br /> 561 <br /> 21.9251336898396"
"77";"17BB";"Noord-Holland";41023;"Basisschool Huibers";"Jacob Geelstraat";"48";"1065 VT";"AMSTERDAM";363;"AMSTERDAM";"Rooms-Katholiek";206152697;"www.huibersschool.nl";"Jacob Geelstraat";"48";"1065 VT";"AMSTERDAM";44;"Amsterdam";20;"Zuidelijk Noord-Holland";21;"Agglomeratie Amsterdam";23;"Groot-Amsterdam";15;"Zuid-Noord-Holland";21;"Agglomeratie Amsterdam";0;"BS Huibers";"AMSTERDAM";"Noord-Holland";"PO2707";41023;176;85;91;128;15;33;126;176;85;91;128;15;33;126;0;0;0;0;0;0;0;52.3601322;4.8303862;71.5909090909091;"br />  <br /> 176 <br /> 71.5909090909091"
"78";"18RN";"Noord-Holland";41781;"Notenkraker";"Theophile de Bockstraat";"100-D";"1058 VC";"AMSTERDAM";363;"AMSTERDAM";"Openbaar";206178128;"                                                                                ";"Theophile de Bockstraat";"100-D";"1058 VC";"AMSTERDAM";44;"Amsterdam";20;"Zuidelijk Noord-Holland";21;"Agglomeratie Amsterdam";23;"Groot-Amsterdam";15;"Zuid-Noord-Holland";21;"Agglomeratie Amsterdam";0;"Notenkraker";"AMSTERDAM";"Noord-Holland";"PO2707";41781;510;289;221;494;1;15;79;510;289;221;494;1;15;79;0;0;0;0;0;0;0;52.3550856;4.8459576;15.4901960784314;"br />  <br /> 510 <br /> 15.4901960784314"
"79";"18TV";"Noord-Holland";41716;"De Blauwe Lijn";"Kortvoort";"61";"1104 NA";"AMSTERDAM";363;"AMSTERDAM";"Openbaar";206907360;"www.deblauwelijn.nl";"Kortvoort";"61";"1104 NA";"AMSTERDAM";44;"Amsterdam";20;"Zuidelijk Noord-Holland";21;"Agglomeratie Amsterdam";23;"Groot-Amsterdam";15;"Zuid-Noord-Holland";21;"Agglomeratie Amsterdam";0;"De Blauwe Lijn";"AMSTERDAM";"Noord-Holland";"PO2707";41716;224;111;113;130;45;49;77;224;111;113;130;45;49;77;0;0;0;0;0;0;0;52.315838;4.970323;34.375;"br />  <br /> 224 <br /> 34.375"
"80";"18UH";"Noord-Holland";41781;"Dr E Boekman";"Korte Lepelstraat";"81";"1018 ZA";"AMSTERDAM";363;"AMSTERDAM";"Openbaar";206229785;"www.boekmanschool.nl";"Korte Lepelstraat";"81";"1018 ZA";"AMSTERDAM";44;"Amsterdam";20;"Zuidelijk Noord-Holland";21;"Agglomeratie Amsterdam";23;"Groot-Amsterdam";15;"Zuid-Noord-Holland";21;"Agglomeratie Amsterdam";0;"Dr E Boekman";"AMSTERDAM";"Noord-Holland";"PO2707";41781;398;197;201;389;7;2;62;395;194;201;386;7;2;62;3;3;0;3;0;0;0;52.3634992;4.9097987;15.5778894472362;"br />  <br /> 398 <br /> 15.5778894472362"
"81";"18UH";"Noord-Holland";41781;"Dr E Boekman";"Korte Lepelstraat";"81";"1018 ZA";"AMSTERDAM";363;"AMSTERDAM";"Openbaar";206229785;"www.boekmanschool.nl";"Korte Lepelstraat";"81";"1018 ZA";"AMSTERDAM";44;"Amsterdam";20;"Zuidelijk Noord-Holland";21;"Agglomeratie Amsterdam";23;"Groot-Amsterdam";15;"Zuid-Noord-Holland";21;"Agglomeratie Amsterdam";1;"Dr E Boekman";"AMSTERDAM";"Noord-Holland";"PO2707";41781;443;235;208;436;6;1;12;443;235;208;436;6;1;12;0;0;0;0;0;0;0;52.3634992;4.9097987;2.70880361173815;"br />  <br /> 443 <br /> 2.70880361173815"
"82";"18UR";"Noord-Holland";41774;"Aldoende";"Tweede Boerhaavestraat";"22";"1091 AN";"AMSTERDAM";363;"AMSTERDAM";"Openbaar";206652663;"www.obsaldoende.nl";"Tweede Boerhaavestraat";"22";"1091 AN";"AMSTERDAM";44;"Amsterdam";20;"Zuidelijk Noord-Holland";21;"Agglomeratie Amsterdam";23;"Groot-Amsterdam";15;"Zuid-Noord-Holland";21;"Agglomeratie Amsterdam";0;"Aldoende";"AMSTERDAM";"Noord-Holland";"PO2707";41774;403;207;196;348;16;39;108;403;207;196;348;16;39;108;0;0;0;0;0;0;0;52.358894;4.9112293;26.7990074441687;"br />  <br /> 403 <br /> 26.7990074441687"
"83";"18VB";"Noord-Holland";41663;"Bos en Lommer";"Flierefluiterpad";"15";"1061 ER";"AMSTERDAM";363;"AMSTERDAM";"Openbaar";206862518;"www.bosenlommerschool.nl";"Postbus";"56763";"1040 AT";"AMSTERDAM";44;"Amsterdam";20;"Zuidelijk Noord-Holland";21;"Agglomeratie Amsterdam";23;"Groot-Amsterdam";15;"Zuid-Noord-Holland";21;"Agglomeratie Amsterdam";0;"Bos en Lommer";"AMSTERDAM";"Noord-Holland";"PO2707";41663;260;126;134;162;17;81;207;260;126;134;162;17;81;207;0;0;0;0;0;0;0;52.3803291;4.8403401;79.6153846153846;"br />  <br /> 260 <br /> 79.6153846153846"
"84";"18VJ";"Noord-Holland";41663;"Basisschool Westerpark";"Van Hogendorpplein";"11";"1051 AX";"AMSTERDAM";363;"AMSTERDAM";"Openbaar";206860144;"www.westerparkschool.nl";"Van Hogendorpplein";"11";"1051 AX";"AMSTERDAM";44;"Amsterdam";20;"Zuidelijk Noord-Holland";21;"Agglomeratie Amsterdam";23;"Groot-Amsterdam";15;"Zuid-Noord-Holland";21;"Agglomeratie Amsterdam";0;"BS Westerpark";"AMSTERDAM";"Noord-Holland";"PO2707";41663;413;219;194;343;30;40;162;413;219;194;343;30;40;162;0;0;0;0;0;0;0;52.3848879;4.8770345;39.225181598063;"br />  <br /> 413 <br /> 39.225181598063"
"85";"18VV";"Noord-Holland";41716;"De Brink";"Mijehof";"302";"1106 HW";"AMSTERDAM";363;"AMSTERDAM";"Openbaar";206972685;"www.debrink.com";"Mijehof";"302";"1106 HW";"AMSTERDAM";44;"Amsterdam";20;"Zuidelijk Noord-Holland";21;"Agglomeratie Amsterdam";23;"Groot-Amsterdam";15;"Zuid-Noord-Holland";21;"Agglomeratie Amsterdam";0;"De Brink";"AMSTERDAM";"Noord-Holland";"PO2707";41716;257;127;130;211;21;25;91;255;126;129;209;21;25;90;2;1;1;2;0;0;1;52.3006565;4.9691612;35.408560311284;"br />  <br /> 257 <br /> 35.408560311284"
"86";"18WD";"Noord-Holland";41579;"De Slootermeerschool";"Burgemeester Fockstraat";"85";"1063 CW";"AMSTERDAM";363;"AMSTERDAM";"Openbaar";206132233;"www.slootermeerschool.nl";"Burgemeester Fockstraat";"85";"1063 CW";"AMSTERDAM";44;"Amsterdam";20;"Zuidelijk Noord-Holland";21;"Agglomeratie Amsterdam";23;"Groot-Amsterdam";15;"Zuid-Noord-Holland";21;"Agglomeratie Amsterdam";0;"De Slootermeerschool";"AMSTERDAM";"Noord-Holland";"PO2707";41579;337;165;172;201;3;133;304;337;165;172;201;3;133;304;0;0;0;0;0;0;0;52.3819924;4.8327261;90.2077151335312;"br />  <br /> 337 <br /> 90.2077151335312"
"87";"18WK";"Noord-Holland";41579;"Burgemeester De Vlugtschool";"Jan de Louterstraat";"11";"1063 KX";"AMSTERDAM";363;"AMSTERDAM";"Openbaar";206130013;"www.devlugtschool.nl";"Jan de Louterstraat";"11";"1063 KX";"AMSTERDAM";44;"Amsterdam";20;"Zuidelijk Noord-Holland";21;"Agglomeratie Amsterdam";23;"Groot-Amsterdam";15;"Zuid-Noord-Holland";21;"Agglomeratie Amsterdam";0;"Burg De Vlugt";"AMSTERDAM";"Noord-Holland";"PO2707";41579;366;192;174;249;23;94;311;366;192;174;249;23;94;311;0;0;0;0;0;0;0;52.3795033;4.8194119;84.9726775956284;"br />  <br /> 366 <br /> 84.9726775956284"
"88";"18WU";"Noord-Holland";41781;"Burght";"Herengracht";"34";"1015 BL";"AMSTERDAM";363;"AMSTERDAM";"Openbaar";206246947;"www.obsburght.nl";"Herengracht";"34";"1015 BL";"AMSTERDAM";44;"Amsterdam";20;"Zuidelijk Noord-Holland";21;"Agglomeratie Amsterdam";23;"Groot-Amsterdam";15;"Zuid-Noord-Holland";21;"Agglomeratie Amsterdam";0;"Burght";"AMSTERDAM";"Noord-Holland";"PO2707";41781;493;267;226;482;10;1;69;493;267;226;482;10;1;69;0;0;0;0;0;0;0;52.3783221;4.8907243;13.9959432048682;"br />  <br /> 493 <br /> 13.9959432048682"
"89";"18XC";"Noord-Holland";41716;"Bijlmerdrie";"Kantershof";"641-642";"1104 HJ";"AMSTERDAM";363;"AMSTERDAM";"Openbaar";206997202;"www.bijlmerdrie.nl";"Kantershof";"641-642";"1104 HJ";"AMSTERDAM";44;"Amsterdam";20;"Zuidelijk Noord-Holland";21;"Agglomeratie Amsterdam";23;"Groot-Amsterdam";15;"Zuid-Noord-Holland";21;"Agglomeratie Amsterdam";0;"Bijlmerdrie";"AMSTERDAM";"Noord-Holland";"PO2707";41716;85;47;38;50;24;11;15;84;46;38;49;24;11;15;1;1;0;1;0;0;0;52.3192527;4.9875103;17.6470588235294;"br />  <br /> 85 <br /> 17.6470588235294"
"90";"18YT";"Noord-Holland";41716;"Bijlmerhorst";"EGoli";"12";"1103 AC";"AMSTERDAM";363;"AMSTERDAM";"Openbaar";206908186;"www.bijlmerhorst.nl";"EGoli";"12";"1103 AC";"AMSTERDAM";44;"Amsterdam";20;"Zuidelijk Noord-Holland";21;"Agglomeratie Amsterdam";23;"Groot-Amsterdam";15;"Zuid-Noord-Holland";21;"Agglomeratie Amsterdam";0;"Bijlmerhorst";"AMSTERDAM";"Noord-Holland";"PO2707";41716;191;86;105;115;38;38;79;191;86;105;115;38;38;79;0;0;0;0;0;0;0;52.3232906;4.9598981;41.3612565445026;"br />  <br /> 191 <br /> 41.3612565445026"
"91";"18ZL";"Noord-Holland";41716;"Openbare basisschool Wereldwijs";"Geerdinkhof";"694-696";"1103 RP";"AMSTERDAM";363;"AMSTERDAM";"Openbaar";206981078;"www.obs-wereldwijs.nl";"Geerdinkhof";"694-696";"1103 RP";"AMSTERDAM";44;"Amsterdam";20;"Zuidelijk Noord-Holland";21;"Agglomeratie Amsterdam";23;"Groot-Amsterdam";15;"Zuid-Noord-Holland";21;"Agglomeratie Amsterdam";0;"Wereldwijs";"AMSTERDAM";"Noord-Holland";"PO2707";41716;327;184;143;288;12;27;124;327;184;143;288;12;27;124;0;0;0;0;0;0;0;52.3248501;4.9816512;37.9204892966361;"br />  <br /> 327 <br /> 37.9204892966361"
"92";"18ZX";"Noord-Holland";41663;"Joop Westerweel School";"Balboaplein";"44";"1057 VS";"AMSTERDAM";363;"AMSTERDAM";"Openbaar";206125539;"www.joopwesterweelschool.nl";"Balboaplein";"44";"1057 VS";"AMSTERDAM";44;"Amsterdam";20;"Zuidelijk Noord-Holland";21;"Agglomeratie Amsterdam";23;"Groot-Amsterdam";15;"Zuid-Noord-Holland";21;"Agglomeratie Amsterdam";0;"Joop Westerweel Sch";"AMSTERDAM";"Noord-Holland";"PO2707";41663;398;236;162;288;16;94;234;394;233;161;285;16;93;232;4;3;1;3;0;1;2;52.3688581;4.8561669;58.7939698492462;"br />  <br /> 398 <br /> 58.7939698492462"
"93";"19AI";"Noord-Holland";41774;"Openbare Basisschool De Kaap";"Christiaan de Wetstraat";"23";"1091 NG";"AMSTERDAM";363;"AMSTERDAM";"Openbaar";206939375;"                                                                                ";"Christiaan de Wetstraat";"23";"1091 NG";"AMSTERDAM";44;"Amsterdam";20;"Zuidelijk Noord-Holland";21;"Agglomeratie Amsterdam";23;"Groot-Amsterdam";15;"Zuid-Noord-Holland";21;"Agglomeratie Amsterdam";0;"OBS De Kaap";"AMSTERDAM";"Noord-Holland";"PO2707";41774;152;80;72;97;1;54;117;152;80;72;97;1;54;117;0;0;0;0;0;0;0;52.3542422;4.9189412;76.9736842105263;"br />  <br /> 152 <br /> 76.9736842105263"
"94";"19AQ";"Noord-Holland";41774;"Openbare Basisschool De Dapper";"Pieter Nieuwlandstraat";"3";"1093 XG";"AMSTERDAM";363;"AMSTERDAM";"Openbaar";206939100;"www.bsdedapper.nl";"Pieter Nieuwlandstraat";"3";"1093 XG";"AMSTERDAM";44;"Amsterdam";20;"Zuidelijk Noord-Holland";21;"Agglomeratie Amsterdam";23;"Groot-Amsterdam";15;"Zuid-Noord-Holland";21;"Agglomeratie Amsterdam";0;"OBS De Dapper";"AMSTERDAM";"Noord-Holland";"PO2707";41774;153;75;78;104;13;36;105;151;75;76;102;13;36;103;2;0;2;2;0;0;2;52.3615143;4.9263601;68.6274509803922;"br />  <br /> 153 <br /> 68.6274509803922"
"95";"19AZ";"Noord-Holland";41663;"Corantijn";"Corantijnstraat";"4";"1058 DD";"AMSTERDAM";363;"AMSTERDAM";"Openbaar";206184430;"www.corantijnschool.nl";"Corantijnstraat";"4";"1058 DD";"AMSTERDAM";44;"Amsterdam";20;"Zuidelijk Noord-Holland";21;"Agglomeratie Amsterdam";23;"Groot-Amsterdam";15;"Zuid-Noord-Holland";21;"Agglomeratie Amsterdam";0;"Corantijn";"AMSTERDAM";"Noord-Holland";"PO2707";41663;267;169;98;233;3;31;98;267;169;98;233;3;31;98;0;0;0;0;0;0;0;52.3620603;4.8526179;36.7041198501873;"br />  <br /> 267 <br /> 36.7041198501873"
"96";"19BH";"Noord-Holland";41716;"Cornelis Jetses";"Jaargetijden";"6";"1109 AR";"AMSTERDAM";363;"AMSTERDAM";"Openbaar";294414370;"www.cjetses.nl";"Jaargetijden";"6";"1109 AR";"AMSTERDAM";44;"Amsterdam";20;"Zuidelijk Noord-Holland";21;"Agglomeratie Amsterdam";23;"Groot-Amsterdam";15;"Zuid-Noord-Holland";21;"Agglomeratie Amsterdam";0;"Cornelis Jetses";"AMSTERDAM";"Noord-Holland";"PO2707";41716;96;52;44;89;3;4;18;96;52;44;89;3;4;18;0;0;0;0;0;0;0;52.3057122;5.0192291;18.75;"br />  <br /> 96 <br /> 18.75"
"97";"19BO";"Noord-Holland";41781;"Pieter Bakkumschool Daltonschool";"Willem Witsenstraat";"10";"1077 AZ";"AMSTERDAM";363;"AMSTERDAM";"Openbaar";206736925;"www.2edalton.nl";"Willem Witsenstraat";"10";"1077 AZ";"AMSTERDAM";44;"Amsterdam";20;"Zuidelijk Noord-Holland";21;"Agglomeratie Amsterdam";23;"Groot-Amsterdam";15;"Zuid-Noord-Holland";21;"Agglomeratie Amsterdam";0;"Pieter Bakkumsch";"AMSTERDAM";"Noord-Holland";"PO2707";41781;448;219;229;448;0;0;3;448;219;229;448;0;0;3;0;0;0;0;0;0;0;52.3514222;4.8698164;0.669642857142857;"br />  <br /> 448 <br /> 0.669642857142857"
"98";"19BS";"Noord-Holland";41781;"Alberdingk Thijmschool Daltonschool";"Van Ostadestraat";"203";"1073 TN";"AMSTERDAM";363;"AMSTERDAM";"Openbaar";206624480;"www.derdedalton.nl";"Van Ostadestraat";"203";"1073 TN";"AMSTERDAM";44;"Amsterdam";20;"Zuidelijk Noord-Holland";21;"Agglomeratie Amsterdam";23;"Groot-Amsterdam";15;"Zuid-Noord-Holland";21;"Agglomeratie Amsterdam";0;"Alberdingk Thijmsch";"AMSTERDAM";"Noord-Holland";"PO2707";41781;401;205;196;377;7;17;71;401;205;196;377;7;17;71;0;0;0;0;0;0;0;52.3531774;4.8979043;17.7057356608479;"br />  <br /> 401 <br /> 17.7057356608479"
"99";"19BW";"Noord-Holland";41781;"Dongeschool";"Dintelstraat";"5-7";"1078 VN";"AMSTERDAM";363;"AMSTERDAM";"Openbaar";206641288;"www.dongeschool.nl";"Dintelstraat";"5-7";"1078 VN";"AMSTERDAM";44;"Amsterdam";20;"Zuidelijk Noord-Holland";21;"Agglomeratie Amsterdam";23;"Groot-Amsterdam";15;"Zuid-Noord-Holland";21;"Agglomeratie Amsterdam";0;"Dongesch";"AMSTERDAM";"Noord-Holland";"PO2707";41781;428;226;202;413;11;4;59;428;226;202;413;11;4;59;0;0;0;0;0;0;0;52.3457787;4.8931429;13.785046728972;"br />  <br /> 428 <br /> 13.785046728972"
"100";"19CA";"Noord-Holland";41781;"De Springstok (onderdeel van het Jan van der Heijdenhuis)";"2e Jan vd Heijdenstr";"75-77";"1074 XR";"AMSTERDAM";363;"AMSTERDAM";"Openbaar";206648670;"www.janvanderheijdenhuis.nl";"2e Jan vd Heijdenstr";"75-77";"1074 XR";"AMSTERDAM";44;"Amsterdam";20;"Zuidelijk Noord-Holland";21;"Agglomeratie Amsterdam";23;"Groot-Amsterdam";15;"Zuid-Noord-Holland";21;"Agglomeratie Amsterdam";0;"De Springstok";"AMSTERDAM";"Noord-Holland";"PO2707";41781;140;61;79;122;7;11;62;140;61;79;122;7;11;62;0;0;0;0;0;0;0;52.3560953;4.9023602;44.2857142857143;"br />  <br /> 140 <br /> 44.2857142857143"
"101";"19CD";"Noord-Holland";41579;"Einsteinschool";"Staalmanpark";"10";"1066 BR";"AMSTERDAM";363;"AMSTERDAM";"Openbaar";207600061;"www.einsteinschool.nl";"Staalmanpark";"10";"1066 BR";"AMSTERDAM";44;"Amsterdam";20;"Zuidelijk Noord-Holland";21;"Agglomeratie Amsterdam";23;"Groot-Amsterdam";15;"Zuid-Noord-Holland";21;"Agglomeratie Amsterdam";0;"CC Einstein";"AMSTERDAM";"Noord-Holland";"PO2707";41579;147;79;68;105;5;37;130;147;79;68;105;5;37;130;0;0;0;0;0;0;0;52.3491333;4.8313473;88.4353741496599;"br />  <br /> 147 <br /> 88.4353741496599"
"102";"19CH";"Noord-Holland";41774;"Openbare Basisschool Flevopark";"Soembawastraat";"61";"1095 VX";"AMSTERDAM";363;"AMSTERDAM";"Openbaar";206942591;"www.flevoparkschool.nl";"Postbus";"92105";"1090 AC";"AMSTERDAM";44;"Amsterdam";20;"Zuidelijk Noord-Holland";21;"Agglomeratie Amsterdam";23;"Groot-Amsterdam";15;"Zuid-Noord-Holland";21;"Agglomeratie Amsterdam";0;"Obs Flevopark";"AMSTERDAM";"Noord-Holland";"PO2707";41774;324;133;191;205;13;106;232;324;133;191;205;13;106;232;0;0;0;0;0;0;0;52.3635511;4.9440216;71.6049382716049;"br />  <br /> 324 <br /> 71.6049382716049"
"103";"19ZG";"Noord-Holland";41579;"Goeman Borgesiusschool";"Aalbersestraat";"35";"1067 EZ";"AMSTERDAM";363;"AMSTERDAM";"Openbaar";206131807;"www.goemanborgesiusschool.nl";"Aalbersestraat";"35";"1067 EZ";"AMSTERDAM";44;"Amsterdam";20;"Zuidelijk Noord-Holland";21;"Agglomeratie Amsterdam";23;"Groot-Amsterdam";15;"Zuid-Noord-Holland";21;"Agglomeratie Amsterdam";0;"Goeman Borgesius";"AMSTERDAM";"Noord-Holland";"PO2707";41579;281;122;159;182;9;90;264;280;122;158;181;9;90;263;1;0;1;1;0;0;1;52.3769766;4.7972635;93.9501779359431;"br />  <br /> 281 <br /> 93.9501779359431"
"104";"20SC";"Noord-Holland";41716;"Holendrecht";"Holendrechtplein";"40";"1106 LP";"AMSTERDAM";363;"AMSTERDAM";"Openbaar";204531549;"www.holendrechtschool.nl";"Holendrechtplein";"40";"1106 LP";"AMSTERDAM";44;"Amsterdam";20;"Zuidelijk Noord-Holland";21;"Agglomeratie Amsterdam";23;"Groot-Amsterdam";15;"Zuid-Noord-Holland";21;"Agglomeratie Amsterdam";0;"Holendrecht";"AMSTERDAM";"Noord-Holland";"PO2707";41716;144;64;80;59;35;50;72;141;62;79;56;35;50;70;3;2;1;3;0;0;2;52.2991241;4.965364;50;"br />  <br /> 144 <br /> 50"
"105";"20SE";"Noord-Holland";41579;"Brede School Huizinga";"Jacob Geelstraat";"54";"1065 VT";"AMSTERDAM";363;"AMSTERDAM";"Openbaar";206152523;"www.huizingaschool.nl";"Jacob Geelstraat";"54";"1065 VT";"AMSTERDAM";44;"Amsterdam";20;"Zuidelijk Noord-Holland";21;"Agglomeratie Amsterdam";23;"Groot-Amsterdam";15;"Zuid-Noord-Holland";21;"Agglomeratie Amsterdam";0;"Huizingaschool";"AMSTERDAM";"Noord-Holland";"PO2707";41579;251;125;126;155;10;86;193;250;124;126;155;10;85;193;1;1;0;0;0;1;0;52.3596766;4.8309791;76.8924302788845;"br />  <br /> 251 <br /> 76.8924302788845"
"106";"20SG";"Noord-Holland";41663;"Brede School De kinkerbuurt";"Borgerstraat";"109";"1053 PE";"AMSTERDAM";363;"AMSTERDAM";"Openbaar";206120177;"www.kinkerbuurtschool.nl";"Borgerstraat";"109";"1053 PE";"AMSTERDAM";44;"Amsterdam";20;"Zuidelijk Noord-Holland";21;"Agglomeratie Amsterdam";23;"Groot-Amsterdam";15;"Zuid-Noord-Holland";21;"Agglomeratie Amsterdam";0;"Brede School De Kinkerbuurt";"AMSTERDAM";"Noord-Holland";"PO2707";41663;355;197;158;328;1;26;36;353;195;158;326;1;26;36;2;2;0;2;0;0;0;52.3646703;4.8657565;10.1408450704225;"br />  <br /> 355 <br /> 10.1408450704225"
"107";"20SH";"Noord-Holland";42553;"Openbare Bassischool IJPlein";"Gedempte Insteekhaven";"85";"1021 RA";"AMSTERDAM";363;"AMSTERDAM";"Openbaar";206341046;"                                                                                ";"Gedempte Insteekhaven";"85";"1021 RA";"AMSTERDAM";44;"Amsterdam";20;"Zuidelijk Noord-Holland";21;"Agglomeratie Amsterdam";23;"Groot-Amsterdam";15;"Zuid-Noord-Holland";21;"Agglomeratie Amsterdam";0;"OBS IJPlein";"AMSTERDAM";"Noord-Holland";"PO2707";42553;156;79;77;92;30;34;115;156;79;77;92;30;34;115;0;0;0;0;0;0;0;52.3816242;4.9135409;73.7179487179487;"br />  <br /> 156 <br /> 73.7179487179487"
"108";"20SJ";"Noord-Holland";41774;"Linnaeus";"Derde Oosterparkstraat";"360";"1092 SE";"AMSTERDAM";363;"AMSTERDAM";"Openbaar";206655394;"www.linnaeusschool.nl";"Derde Oosterparkstraat";"360";"1092 SE";"AMSTERDAM";44;"Amsterdam";20;"Zuidelijk Noord-Holland";21;"Agglomeratie Amsterdam";23;"Groot-Amsterdam";15;"Zuid-Noord-Holland";21;"Agglomeratie Amsterdam";0;"Linnaeus";"AMSTERDAM";"Noord-Holland";"PO2707";41774;154;75;79;138;1;15;99;154;75;79;138;1;15;99;0;0;0;0;0;0;0;52.3586803;4.9253388;64.2857142857143;"br />  <br /> 154 <br /> 64.2857142857143"
"109";"20SK";"Noord-Holland";41579;"Louis Bouwmeesterschool";"Louis Bouwmeesterstraat";"14";"1065 KW";"AMSTERDAM";363;"AMSTERDAM";"Openbaar";206150381;"www.louisbouwmeesterschool.nl";"Louis Bouwmeesterstraat";"14";"1065 KW";"AMSTERDAM";44;"Amsterdam";20;"Zuidelijk Noord-Holland";21;"Agglomeratie Amsterdam";23;"Groot-Amsterdam";15;"Zuid-Noord-Holland";21;"Agglomeratie Amsterdam";0;"Louis Bouwmeester";"AMSTERDAM";"Noord-Holland";"PO2707";41579;251;103;148;179;16;56;174;251;103;148;179;16;56;174;0;0;0;0;0;0;0;52.3556929;4.8210621;69.3227091633466;"br />  <br /> 251 <br /> 69.3227091633466"
"110";"20SL";"Noord-Holland";41579;"OBS de Toekomst";"August Allebeplein";"7";"1062 AA";"AMSTERDAM";363;"AMSTERDAM";"Openbaar";206152400;"www.obsdetoekomst.nl";"August Allebeplein";"7";"1062 AA";"AMSTERDAM";44;"Amsterdam";20;"Zuidelijk Noord-Holland";21;"Agglomeratie Amsterdam";23;"Groot-Amsterdam";15;"Zuid-Noord-Holland";21;"Agglomeratie Amsterdam";0;"OBS de Toekomst";"AMSTERDAM";"Noord-Holland";"PO2707";41579;210;92;118;137;19;54;191;209;91;118;137;19;53;190;1;1;0;0;0;1;1;52.3631307;4.8392895;90.9523809523809;"br />  <br /> 210 <br /> 90.9523809523809"
"111";"20TP";"Noord-Holland";41716;"De Ster";"Woudrichemstraat";"8";"1107 NG";"AMSTERDAM";363;"AMSTERDAM";"Openbaar";206967866;"www.obsdester.nl";"Woudrichemstraat";"8";"1107 NG";"AMSTERDAM";44;"Amsterdam";20;"Zuidelijk Noord-Holland";21;"Agglomeratie Amsterdam";23;"Groot-Amsterdam";15;"Zuid-Noord-Holland";21;"Agglomeratie Amsterdam";0;"De Ster";"AMSTERDAM";"Noord-Holland";"PO2707";41716;113;68;45;68;13;32;80;112;67;45;67;13;32;80;1;1;0;1;0;0;0;52.2942853;4.9876908;70.7964601769911;"br />  <br /> 113 <br /> 70.7964601769911"
"112";"20TQ";"Noord-Holland";41663;"Rosa Boekdrukker";"Vancouverstraat";"3";"1056 DT";"AMSTERDAM";363;"AMSTERDAM";"Openbaar";206128000;"www.rosaboekdrukker.nl";"Vancouverstraat";"3";"1056 DT";"AMSTERDAM";44;"Amsterdam";20;"Zuidelijk Noord-Holland";21;"Agglomeratie Amsterdam";23;"Groot-Amsterdam";15;"Zuid-Noord-Holland";21;"Agglomeratie Amsterdam";0;"Rosa Boekdrukker";"AMSTERDAM";"Noord-Holland";"PO2707";41663;294;179;115;241;17;36;133;294;179;115;241;17;36;133;0;0;0;0;0;0;0;52.3731982;4.8553329;45.2380952380952;"br />  <br /> 294 <br /> 45.2380952380952"
"113";"20TR";"Noord-Holland";41781;"Merkelbach";"Arent Janszoon Ernststr";"128";"1082 LP";"AMSTERDAM";363;"AMSTERDAM";"Openbaar";206428845;"www.merkelbachschool.nl";"Arent Janszoon Ernststr";"128";"1082 LP";"AMSTERDAM";44;"Amsterdam";20;"Zuidelijk Noord-Holland";21;"Agglomeratie Amsterdam";23;"Groot-Amsterdam";15;"Zuid-Noord-Holland";21;"Agglomeratie Amsterdam";0;"Merkelbach";"AMSTERDAM";"Noord-Holland";"PO2707";41781;140;65;75;128;6;6;60;140;65;75;128;6;6;60;0;0;0;0;0;0;0;52.3326814;4.8777958;42.8571428571429;"br />  <br /> 140 <br /> 42.8571428571429"
"114";"20TS";"Noord-Holland";41781;"Basisschool De Wielewaal 1e Montessori-School";"Corellistraat";"1";"1077 HA";"AMSTERDAM";363;"AMSTERDAM";"Openbaar";206736193;"                                                                                ";"Corellistraat";"1";"1077 HA";"AMSTERDAM";44;"Amsterdam";20;"Zuidelijk Noord-Holland";21;"Agglomeratie Amsterdam";23;"Groot-Amsterdam";15;"Zuid-Noord-Holland";21;"Agglomeratie Amsterdam";0;"Basisschool De Wielewaal";"AMSTERDAM";"Noord-Holland";"PO2707";41781;290;147;143;290;0;0;3;290;147;143;290;0;0;3;0;0;0;0;0;0;0;52.3492619;4.8794548;1.03448275862069;"br />  <br /> 290 <br /> 1.03448275862069"
"115";"20TT";"Noord-Holland";41663;"Basisschool Het Winterkoninkje 2e Montessori-School";"Hasebroekstraat";"113";"1053 CS";"AMSTERDAM";363;"AMSTERDAM";"Openbaar";206188563;"www.winterkoninkje.nl";"Hasebroekstraat";"113";"1053 CS";"AMSTERDAM";44;"Amsterdam";20;"Zuidelijk Noord-Holland";21;"Agglomeratie Amsterdam";23;"Groot-Amsterdam";15;"Zuid-Noord-Holland";21;"Agglomeratie Amsterdam";0;"Bs Het Winterkoninkje";"AMSTERDAM";"Noord-Holland";"PO2707";41663;393;211;182;385;0;8;68;392;210;182;384;0;8;68;1;1;0;1;0;0;0;52.3652539;4.8615506;17.3027989821883;"br />  <br /> 393 <br /> 17.3027989821883"
"116";"20TV";"Noord-Holland";41774;"Basisschool D Pinksterbloem 4e Montessori-School";"Weesperzijde";"57";"1091 EG";"AMSTERDAM";363;"AMSTERDAM";"Openbaar";206941189;"www.depinksterbloem.nl";"Weesperzijde";"57";"1091 EG";"AMSTERDAM";44;"Amsterdam";20;"Zuidelijk Noord-Holland";21;"Agglomeratie Amsterdam";23;"Groot-Amsterdam";15;"Zuid-Noord-Holland";21;"Agglomeratie Amsterdam";0;"Bs De Pinksterbloem";"AMSTERDAM";"Noord-Holland";"PO2707";41774;383;206;177;372;2;9;62;382;205;177;371;2;9;62;1;1;0;1;0;0;0;52.3547578;4.9085434;16.1879895561358;"br />  <br /> 383 <br /> 16.1879895561358"
"117";"20TW";"Noord-Holland";41774;"5e Montessorischool Watergraafsmeer";"Herschelstraat";"4";"1098 JA";"AMSTERDAM";363;"AMSTERDAM";"Openbaar";206946208;"www.5mw.nl";"Herschelstraat";"4";"1098 JA";"AMSTERDAM";44;"Amsterdam";20;"Zuidelijk Noord-Holland";21;"Agglomeratie Amsterdam";23;"Groot-Amsterdam";15;"Zuid-Noord-Holland";21;"Agglomeratie Amsterdam";0;"5e Mont Watergraafsmeer";"AMSTERDAM";"Noord-Holland";"PO2707";41774;596;317;279;587;2;7;40;596;317;279;587;2;7;40;0;0;0;0;0;0;0;52.354335;4.9382716;6.71140939597315;"br />  <br /> 596 <br /> 6.71140939597315"
"118";"20TX";"Noord-Holland";41781;"Basisschool Anne Frank 6e Montessori-School";"Niersstraat";"41";"1078 VJ";"AMSTERDAM";363;"AMSTERDAM";"Openbaar";206640482;"www.annefrank-montessori.nl";"Niersstraat";"41";"1078 VJ";"AMSTERDAM";44;"Amsterdam";20;"Zuidelijk Noord-Holland";21;"Agglomeratie Amsterdam";23;"Groot-Amsterdam";15;"Zuid-Noord-Holland";21;"Agglomeratie Amsterdam";1;"Basisschool Anne Frank";"AMSTERDAM";"Noord-Holland";"PO2707";41781;245;154;91;242;0;3;66;245;154;91;242;0;3;66;0;0;0;0;0;0;0;52.3426438;4.893574;26.9387755102041;"br />  <br /> 245 <br /> 26.9387755102041"
"119";"20TX";"Noord-Holland";41781;"Basisschool Anne Frank 6e Montessori-School";"Niersstraat";"41";"1078 VJ";"AMSTERDAM";363;"AMSTERDAM";"Openbaar";206640482;"www.annefrank-montessori.nl";"Niersstraat";"41";"1078 VJ";"AMSTERDAM";44;"Amsterdam";20;"Zuidelijk Noord-Holland";21;"Agglomeratie Amsterdam";23;"Groot-Amsterdam";15;"Zuid-Noord-Holland";21;"Agglomeratie Amsterdam";2;"Basisschool Anne Frank";"AMSTERDAM";"Noord-Holland";"PO2707";41781;323;190;133;317;4;2;63;323;190;133;317;4;2;63;0;0;0;0;0;0;0;52.3426438;4.893574;19.5046439628483;"br />  <br /> 323 <br /> 19.5046439628483"
"120";"20TX";"Noord-Holland";41781;"Basisschool Anne Frank 6e Montessori-School";"Niersstraat";"41";"1078 VJ";"AMSTERDAM";363;"AMSTERDAM";"Openbaar";206640482;"www.annefrank-montessori.nl";"Niersstraat";"41";"1078 VJ";"AMSTERDAM";44;"Amsterdam";20;"Zuidelijk Noord-Holland";21;"Agglomeratie Amsterdam";23;"Groot-Amsterdam";15;"Zuid-Noord-Holland";21;"Agglomeratie Amsterdam";0;"Basisschool Anne Frank";"AMSTERDAM";"Noord-Holland";"PO2707";41781;343;199;144;343;0;0;57;343;199;144;343;0;0;57;0;0;0;0;0;0;0;52.3426438;4.893574;16.6180758017493;"br />  <br /> 343 <br /> 16.6180758017493"
"121";"20TX";"Noord-Holland";41781;"Basisschool Anne Frank 6e Montessori-School";"Niersstraat";"41";"1078 VJ";"AMSTERDAM";363;"AMSTERDAM";"Openbaar";206640482;"www.annefrank-montessori.nl";"Niersstraat";"41";"1078 VJ";"AMSTERDAM";44;"Amsterdam";20;"Zuidelijk Noord-Holland";21;"Agglomeratie Amsterdam";23;"Groot-Amsterdam";15;"Zuid-Noord-Holland";21;"Agglomeratie Amsterdam";3;"Basisschool Anne Frank";"AMSTERDAM";"Noord-Holland";"PO2707";41781;49;0;49;42;3;4;22;49;0;49;42;3;4;22;0;0;0;0;0;0;0;52.3426438;4.893574;44.8979591836735;"br />  <br /> 49 <br /> 44.8979591836735"
"122";"20UP";"Noord-Holland";41579;"7e Montessorischool, Openbare School voor Basisonderwijs";"Nachtwachtlaan";"35";"1058 EB";"AMSTERDAM";363;"AMSTERDAM";"Openbaar";206836646;"www.7emontessori.nl";"Nachtwachtlaan";"35";"1058 EB";"AMSTERDAM";44;"Amsterdam";20;"Zuidelijk Noord-Holland";21;"Agglomeratie Amsterdam";23;"Groot-Amsterdam";15;"Zuid-Noord-Holland";21;"Agglomeratie Amsterdam";0;"7e Montessorischool";"AMSTERDAM";"Noord-Holland";"PO2707";41579;498;253;245;460;8;30;184;498;253;245;460;8;30;184;0;0;0;0;0;0;0;52.3605994;4.8439384;36.9477911646586;"br />  <br /> 498 <br /> 36.9477911646586"
"123";"20UV";"Noord-Holland";41663;"Basisschool De Meidoorn 10e Montessori-School";"Chassestraat";"59";"1057 JA";"AMSTERDAM";363;"AMSTERDAM";"Openbaar";206160106;"www.10emeidoorn.nl";"Chassestraat";"59";"1057 JA";"AMSTERDAM";44;"Amsterdam";20;"Zuidelijk Noord-Holland";21;"Agglomeratie Amsterdam";23;"Groot-Amsterdam";15;"Zuid-Noord-Holland";21;"Agglomeratie Amsterdam";0;"Basisschool De Meidoorn";"AMSTERDAM";"Noord-Holland";"PO2707";41663;323;152;171;290;8;25;95;323;152;171;290;8;25;95;0;0;0;0;0;0;0;52.3690676;4.8612921;29.4117647058824;"br />  <br /> 323 <br /> 29.4117647058824"
"124";"20VA";"Noord-Holland";41781;"Openbare Basisschool Jordaan";"Elandsstraat";"99";"1016 RX";"AMSTERDAM";363;"AMSTERDAM";"Openbaar";206239900;"www.14e-montessori.nl";"Elandsstraat";"99";"1016 RX";"AMSTERDAM";44;"Amsterdam";20;"Zuidelijk Noord-Holland";21;"Agglomeratie Amsterdam";23;"Groot-Amsterdam";15;"Zuid-Noord-Holland";21;"Agglomeratie Amsterdam";0;"OBS Jordaan";"AMSTERDAM";"Noord-Holland";"PO2707";41781;419;224;195;416;1;2;15;419;224;195;416;1;2;15;0;0;0;0;0;0;0;52.3704708;4.8810328;3.5799522673031;"br />  <br /> 419 <br /> 3.5799522673031"
"125";"20VE";"Noord-Holland";41716;"Basisschool Gaasperdam 16e Montessori-School";"Vreeswijkpad";"6";"1106 DV";"AMSTERDAM";363;"AMSTERDAM";"Openbaar";206963262;"www.16montessori.nl";"Vreeswijkpad";"6";"1106 DV";"AMSTERDAM";44;"Amsterdam";20;"Zuidelijk Noord-Holland";21;"Agglomeratie Amsterdam";23;"Groot-Amsterdam";15;"Zuid-Noord-Holland";21;"Agglomeratie Amsterdam";0;"Basisschool Gaasperdam";"AMSTERDAM";"Noord-Holland";"PO2707";41716;189;91;98;179;9;1;29;189;91;98;179;9;1;29;0;0;0;0;0;0;0;52.2968623;4.9843107;15.3439153439153;"br />  <br /> 189 <br /> 15.3439153439153"
"126";"20VG";"Noord-Holland";41663;"Narcis Querido";"Jan den Haenstraat";"41";"1055 WC";"AMSTERDAM";363;"AMSTERDAM";"Openbaar";206847424;"www.narcisquerido.nl";"Jan den Haenstraat";"41";"1055 WC";"AMSTERDAM";44;"Amsterdam";20;"Zuidelijk Noord-Holland";21;"Agglomeratie Amsterdam";23;"Groot-Amsterdam";15;"Zuid-Noord-Holland";21;"Agglomeratie Amsterdam";0;"Narcis Querido";"AMSTERDAM";"Noord-Holland";"PO2707";41663;190;96;94;107;22;61;162;190;96;94;107;22;61;162;0;0;0;0;0;0;0;52.3794301;4.8602968;85.2631578947368;"br />  <br /> 190 <br /> 85.2631578947368"
"127";"20VI";"Noord-Holland";41716;"Openbare Basisschool Nellestein Dalton-School";"Leksmondplein";"31";"1108 EL";"AMSTERDAM";363;"AMSTERDAM";"Openbaar";206964563;"                                                                                ";"Leksmondplein";"31";"1108 EL";"AMSTERDAM";44;"Amsterdam";20;"Zuidelijk Noord-Holland";21;"Agglomeratie Amsterdam";23;"Groot-Amsterdam";15;"Zuid-Noord-Holland";21;"Agglomeratie Amsterdam";0;"OBS Nellestein";"AMSTERDAM";"Noord-Holland";"PO2707";41716;376;196;180;298;38;40;174;375;195;180;297;38;40;174;1;1;0;1;0;0;0;52.3088033;4.9805806;46.2765957446808;"br />  <br /> 376 <br /> 46.2765957446808"
"128";"20VJ";"Noord-Holland";41781;"Nicolaas Maes";"Nicolaas Maesstraat";"124-126";"1071 RH";"AMSTERDAM";363;"AMSTERDAM";"Openbaar";208201124;"www.nicolaasmaes.nl";"Nicolaas Maesstraat";"124-126";"1071 RH";"AMSTERDAM";44;"Amsterdam";20;"Zuidelijk Noord-Holland";21;"Agglomeratie Amsterdam";23;"Groot-Amsterdam";15;"Zuid-Noord-Holland";21;"Agglomeratie Amsterdam";0;"Nicolaas Maes";"AMSTERDAM";"Noord-Holland";"PO2707";41781;496;283;213;485;7;4;39;495;282;213;484;7;4;38;1;1;0;1;0;0;1;52.3540459;4.8758626;7.86290322580645;"br />  <br /> 496 <br /> 7.86290322580645"
"129";"20VK";"Noord-Holland";41781;"De Witte Olifant";"Nieuwe Uilenburgerstraat";"96";"1011 LX";"AMSTERDAM";363;"AMSTERDAM";"Openbaar";206245000;"www.witteolifant.nl";"Nieuwe Uilenburgerstraat";"96";"1011 LX";"AMSTERDAM";44;"Amsterdam";20;"Zuidelijk Noord-Holland";21;"Agglomeratie Amsterdam";23;"Groot-Amsterdam";15;"Zuid-Noord-Holland";21;"Agglomeratie Amsterdam";0;"De Witte Olifant";"AMSTERDAM";"Noord-Holland";"PO2707";41781;325;188;137;317;8;0;64;325;188;137;317;8;0;64;0;0;0;0;0;0;0;52.3702799;4.9041764;19.6923076923077;"br />  <br /> 325 <br /> 19.6923076923077"
"130";"20VN";"Noord-Holland";41579;"Pieter Jelles Troelstraschool";"Dr. H. Colijnstraat";"2";"1067 CG";"AMSTERDAM";363;"AMSTERDAM";"Openbaar";206135296;"www.troelstraschool.nl";"Dr. H. Colijnstraat";"2";"1067 CG";"AMSTERDAM";44;"Amsterdam";20;"Zuidelijk Noord-Holland";21;"Agglomeratie Amsterdam";23;"Groot-Amsterdam";15;"Zuid-Noord-Holland";21;"Agglomeratie Amsterdam";0;"P. J. Troelstra";"AMSTERDAM";"Noord-Holland";"PO2707";41579;679;370;309;501;33;145;519;679;370;309;501;33;145;519;0;0;0;0;0;0;0;52.3755838;4.8064164;76.4359351988218;"br />  <br /> 679 <br /> 76.4359351988218"
"131";"20VP";"Noord-Holland";41663;"Basisschool Annie M G Schmidt";"Pieter Langendijkstraat";"44";"1054 ZB";"AMSTERDAM";363;"AMSTERDAM";"Openbaar";206182988;"www.amgs.net";"Pieter Langendijkstraat";"44";"1054 ZB";"AMSTERDAM";44;"Amsterdam";20;"Zuidelijk Noord-Holland";21;"Agglomeratie Amsterdam";23;"Groot-Amsterdam";15;"Zuid-Noord-Holland";21;"Agglomeratie Amsterdam";1;"Bs Annie M G Schmidt";"AMSTERDAM";"Noord-Holland";"PO2707";41663;194;106;88;177;5;12;50;193;105;88;176;5;12;49;1;1;0;1;0;0;1;52.3603424;4.8606105;25.7731958762887;"br />  <br /> 194 <br /> 25.7731958762887"
"132";"20VP";"Noord-Holland";41663;"Basisschool Annie M G Schmidt";"Pieter Langendijkstraat";"44";"1054 ZB";"AMSTERDAM";363;"AMSTERDAM";"Openbaar";206182988;"www.amgs.net";"Pieter Langendijkstraat";"44";"1054 ZB";"AMSTERDAM";44;"Amsterdam";20;"Zuidelijk Noord-Holland";21;"Agglomeratie Amsterdam";23;"Groot-Amsterdam";15;"Zuid-Noord-Holland";21;"Agglomeratie Amsterdam";0;"Bs Annie M G Schmidt";"AMSTERDAM";"Noord-Holland";"PO2707";41663;381;249;132;368;5;8;62;379;247;132;366;5;8;62;2;2;0;2;0;0;0;52.3603424;4.8606105;16.2729658792651;"br />  <br /> 381 <br /> 16.2729658792651"
"133";"20VU";"Noord-Holland";41663;"De Waterkant";"Bilderdijkpark";"18";"1052 SC";"AMSTERDAM";363;"AMSTERDAM";"Openbaar";206120122;"www.dewaterkant.net";"Bilderdijkpark";"18";"1052 SC";"AMSTERDAM";44;"Amsterdam";20;"Zuidelijk Noord-Holland";21;"Agglomeratie Amsterdam";23;"Groot-Amsterdam";15;"Zuid-Noord-Holland";21;"Agglomeratie Amsterdam";0;"De Waterkant";"AMSTERDAM";"Noord-Holland";"PO2707";41663;303;151;152;285;0;18;103;303;151;152;285;0;18;103;0;0;0;0;0;0;0;52.3716637;4.8680091;33.993399339934;"br />  <br /> 303 <br /> 33.993399339934"
"134";"20VX";"Noord-Holland";41663;"Openbare Basisschool Multatuli-School";"Sara Burgerhartstraat";"5";"1055 KV";"AMSTERDAM";363;"AMSTERDAM";"Openbaar";206841740;"                                                                                ";"Sara Burgerhartstraat";"5";"1055 KV";"AMSTERDAM";44;"Amsterdam";20;"Zuidelijk Noord-Holland";21;"Agglomeratie Amsterdam";23;"Groot-Amsterdam";15;"Zuid-Noord-Holland";21;"Agglomeratie Amsterdam";0;"OBS Multatuli-School";"AMSTERDAM";"Noord-Holland";"PO2707";41663;344;176;168;281;16;47;201;344;176;168;281;16;47;201;0;0;0;0;0;0;0;52.3827808;4.8477566;58.4302325581395;"br />  <br /> 344 <br /> 58.4302325581395"
"135";"20XA";"Noord-Holland";41781;"Basisschool Oscar Carre";"1e Jan vd Heijdenstr";"161";"1072 TS";"AMSTERDAM";363;"AMSTERDAM";"Openbaar";206799402;"www.oscarcarre.nl";"1e Jan vd Heijdenstr";"161";"1072 TS";"AMSTERDAM";44;"Amsterdam";20;"Zuidelijk Noord-Holland";21;"Agglomeratie Amsterdam";23;"Groot-Amsterdam";15;"Zuid-Noord-Holland";21;"Agglomeratie Amsterdam";0;"Basisschool Oscar Carre";"AMSTERDAM";"Noord-Holland";"PO2707";41781;322;199;123;308;9;5;69;321;198;123;307;9;5;69;1;1;0;1;0;0;0;52.3538584;4.8930823;21.4285714285714;"br />  <br /> 322 <br /> 21.4285714285714"
"136";"20XO";"Noord-Holland";41663;"Brede School Zeeheld";"Roggeveenstraat";"14";"1013 PV";"AMSTERDAM";363;"AMSTERDAM";"Openbaar";203445060;"www.bredeschooldezeeheld.nl";"Roggeveenstraat";"14";"1013 PV";"AMSTERDAM";44;"Amsterdam";20;"Zuidelijk Noord-Holland";21;"Agglomeratie Amsterdam";23;"Groot-Amsterdam";15;"Zuid-Noord-Holland";21;"Agglomeratie Amsterdam";0;"Brede School Zeeheld";"AMSTERDAM";"Noord-Holland";"PO2707";41663;283;182;101;253;4;26;89;283;182;101;253;4;26;89;0;0;0;0;0;0;0;52.3898642;4.8869078;31.4487632508834;"br />  <br /> 283 <br /> 31.4487632508834"
"137";"20XQ";"Noord-Holland";41663;"De Roos";"Jan van Galenstraat";"105";"1056 BK";"AMSTERDAM";363;"AMSTERDAM";"Openbaar";206122266;"www.obs-deroos.nl";"Jan van Galenstraat";"105";"1056 BK";"AMSTERDAM";44;"Amsterdam";20;"Zuidelijk Noord-Holland";21;"Agglomeratie Amsterdam";23;"Groot-Amsterdam";15;"Zuid-Noord-Holland";21;"Agglomeratie Amsterdam";0;"De Roos";"AMSTERDAM";"Noord-Holland";"PO2707";41663;183;89;94;146;8;29;127;183;89;94;146;8;29;127;0;0;0;0;0;0;0;52.3743738;4.8606412;69.3989071038251;"br />  <br /> 183 <br /> 69.3989071038251"
"138";"20XR";"Noord-Holland";41716;"De Rozemarn";"Huntum";"16";"1102 JA";"AMSTERDAM";363;"AMSTERDAM";"Openbaar";206965752;"                                                                                ";"Huntum";"16";"1102 JA";"AMSTERDAM";44;"Amsterdam";20;"Zuidelijk Noord-Holland";21;"Agglomeratie Amsterdam";23;"Groot-Amsterdam";15;"Zuid-Noord-Holland";21;"Agglomeratie Amsterdam";0;"De Rozemarn";"AMSTERDAM";"Noord-Holland";"PO2707";41716;294;151;143;222;27;45;152;294;151;143;222;27;45;152;0;0;0;0;0;0;0;52.3090856;4.9612077;51.7006802721088;"br />  <br /> 294 <br /> 51.7006802721088"
"139";"20XS";"Noord-Holland";41716;"De Schakel";"Alexander Dumaslaan";"9";"1102 WD";"AMSTERDAM";363;"AMSTERDAM";"Openbaar";206906577;"www.de-schakel.com";"Alexander Dumaslaan";"9";"1102 WD";"AMSTERDAM";44;"Amsterdam";20;"Zuidelijk Noord-Holland";21;"Agglomeratie Amsterdam";23;"Groot-Amsterdam";15;"Zuid-Noord-Holland";21;"Agglomeratie Amsterdam";0;"De Schakel";"AMSTERDAM";"Noord-Holland";"PO2707";41716;344;180;164;245;51;48;124;343;179;164;244;51;48;123;1;1;0;1;0;0;1;52.3236654;4.9421166;36.046511627907;"br />  <br /> 344 <br /> 36.046511627907"
"140";"20XT";"Noord-Holland";41663;"Brede School De Spaarndammerhout";"Revaleiland";"1-B";"1014 ZG";"AMSTERDAM";363;"AMSTERDAM";"Openbaar";206829114;"www.despaarndammerhout.nl";"Revaleiland";"1-B";"1014 ZG";"AMSTERDAM";44;"Amsterdam";20;"Zuidelijk Noord-Holland";21;"Agglomeratie Amsterdam";23;"Groot-Amsterdam";15;"Zuid-Noord-Holland";21;"Agglomeratie Amsterdam";0;"Brede Sch De Spaarndammerhout";"AMSTERDAM";"Noord-Holland";"PO2707";41663;133;85;48;115;4;14;41;132;84;48;114;4;14;41;1;1;0;1;0;0;0;52.3927129;4.8785478;30.8270676691729;"br />  <br /> 133 <br /> 30.8270676691729"
"141";"20XU";"Noord-Holland";41781;"Olympia";"Stadionkade";"113";"1076 BN";"AMSTERDAM";363;"AMSTERDAM";"Openbaar";204712265;"www.olympiaschool.nl";"Stadionkade";"113";"1076 BN";"AMSTERDAM";44;"Amsterdam";20;"Zuidelijk Noord-Holland";21;"Agglomeratie Amsterdam";23;"Groot-Amsterdam";15;"Zuid-Noord-Holland";21;"Agglomeratie Amsterdam";0;"Olympia";"AMSTERDAM";"Noord-Holland";"PO2707";41781;291;137;154;278;6;7;72;291;137;154;278;6;7;72;0;0;0;0;0;0;0;52.3428643;4.862451;24.7422680412371;"br />  <br /> 291 <br /> 24.7422680412371"
"142";"20XY";"Noord-Holland";42553;"De Weidevogel";"Dorpsweg Ransdorp";"31";"1028 BK";"AMSTERDAM";363;"AMSTERDAM";"Openbaar";204904415;"                                                                                ";"Dorpsweg Ransdorp";"31";"1028 BK";"AMSTERDAM";44;"Amsterdam";20;"Zuidelijk Noord-Holland";21;"Agglomeratie Amsterdam";23;"Groot-Amsterdam";15;"Zuid-Noord-Holland";21;"Agglomeratie Amsterdam";0;"De Weidevogel";"AMSTERDAM";"Noord-Holland";"PO2707";42553;201;93;108;199;2;0;2;201;93;108;199;2;0;2;0;0;0;0;0;0;0;52.3919855;4.9942148;0.995024875621891;"br />  <br /> 201 <br /> 0.995024875621891"
"143";"20XZ";"Noord-Holland";41716;"De Tamboerijn";"Reigersbos";"301";"1107 EZ";"AMSTERDAM";363;"AMSTERDAM";"Openbaar";204528156;"                                                                                ";"Reigersbos";"301";"1107 EZ";"AMSTERDAM";44;"Amsterdam";20;"Zuidelijk Noord-Holland";21;"Agglomeratie Amsterdam";23;"Groot-Amsterdam";15;"Zuid-Noord-Holland";21;"Agglomeratie Amsterdam";0;"De Tamboerijn";"AMSTERDAM";"Noord-Holland";"PO2707";41716;471;242;229;392;45;34;110;468;240;228;390;45;33;109;3;2;1;2;0;1;1;52.294366;4.977136;23.3545647558386;"br />  <br /> 471 <br /> 23.3545647558386"
"144";"20YA";"Noord-Holland";41781;"Theo Thijssen";"Anjeliersstraat";"157";"1015 NG";"AMSTERDAM";363;"AMSTERDAM";"Openbaar";206266674;"www.theothijssenschoolamsterdam.nl";"Anjeliersstraat";"157";"1015 NG";"AMSTERDAM";44;"Amsterdam";20;"Zuidelijk Noord-Holland";21;"Agglomeratie Amsterdam";23;"Groot-Amsterdam";15;"Zuid-Noord-Holland";21;"Agglomeratie Amsterdam";0;"Theo Thijssen";"AMSTERDAM";"Noord-Holland";"PO2707";41781;559;289;270;519;29;11;17;558;288;270;518;29;11;17;1;1;0;1;0;0;0;52.3771566;4.8807803;3.04114490161002;"br />  <br /> 559 <br /> 3.04114490161002"
"145";"20YF";"Noord-Holland";41663;"Tijl Uilenspiegel";"Tijl Uilenspiegelstraat";"11";"1055 CK";"AMSTERDAM";363;"AMSTERDAM";"Openbaar";206843954;"www.tijluil.nl";"Tijl Uilenspiegelstraat";"11";"1055 CK";"AMSTERDAM";44;"Amsterdam";20;"Zuidelijk Noord-Holland";21;"Agglomeratie Amsterdam";23;"Groot-Amsterdam";15;"Zuid-Noord-Holland";21;"Agglomeratie Amsterdam";0;"Tijl Uilenspiegel";"AMSTERDAM";"Noord-Holland";"PO2707";41663;377;168;209;209;19;149;320;377;168;209;209;19;149;320;0;0;0;0;0;0;0;52.3780069;4.8494008;84.8806366047745;"br />  <br /> 377 <br /> 84.8806366047745"
"146";"20YG";"Noord-Holland";41774;"Brede Daltonschool De Meer";"Van 't Hofflaan";"50";"1097 EP";"AMSTERDAM";363;"AMSTERDAM";"Openbaar";206945700;"                                                                                ";"Van 't Hofflaan";"50";"1097 EP";"AMSTERDAM";44;"Amsterdam";20;"Zuidelijk Noord-Holland";21;"Agglomeratie Amsterdam";23;"Groot-Amsterdam";15;"Zuid-Noord-Holland";21;"Agglomeratie Amsterdam";0;"Brede Daltonschool De Meer";"AMSTERDAM";"Noord-Holland";"PO2707";41774;498;284;214;488;4;6;46;498;284;214;488;4;6;46;0;0;0;0;0;0;0;52.3472692;4.9339121;9.23694779116466;"br />  <br /> 498 <br /> 9.23694779116466"
"147";"20ZB";"Noord-Holland";42553;"Buikslotermeer";"Breedveld";"7";"1025 PZ";"AMSTERDAM";363;"AMSTERDAM";"Openbaar";206371265;"www.ikcbuikslotermeer.nl";"Breedveld";"7";"1025 PZ";"AMSTERDAM";44;"Amsterdam";20;"Zuidelijk Noord-Holland";21;"Agglomeratie Amsterdam";23;"Groot-Amsterdam";15;"Zuid-Noord-Holland";21;"Agglomeratie Amsterdam";0;"Buikslotermeer";"AMSTERDAM";"Noord-Holland";"PO2707";42553;297;141;156;249;25;23;196;295;140;155;249;24;22;195;2;1;1;0;1;1;1;52.3963334;4.9356278;65.993265993266;"br />  <br /> 297 <br /> 65.993265993266"
"148";"20ZD";"Noord-Holland";42553;"De Poolster";"Plejadenplein";"40";"1033 VL";"AMSTERDAM";363;"AMSTERDAM";"Openbaar";206315870;"www.poolster.edu.amsterdam.nl";"Plejadenplein";"40";"1033 VL";"AMSTERDAM";44;"Amsterdam";20;"Zuidelijk Noord-Holland";21;"Agglomeratie Amsterdam";23;"Groot-Amsterdam";15;"Zuid-Noord-Holland";21;"Agglomeratie Amsterdam";0;"De Poolster";"AMSTERDAM";"Noord-Holland";"PO2707";42553;197;99;98;172;15;10;57;197;99;98;172;15;10;57;0;0;0;0;0;0;0;52.4140374;4.8868538;28.9340101522843;"br />  <br /> 197 <br /> 28.9340101522843"
"149";"20ZE";"Noord-Holland";42553;"De Vier Windstreken";"Parlevinker";"11";"1034 PX";"AMSTERDAM";363;"AMSTERDAM";"Openbaar";206313592;"www.obsvierwindstreken.nl";"Parlevinker";"11";"1034 PX";"AMSTERDAM";44;"Amsterdam";20;"Zuidelijk Noord-Holland";21;"Agglomeratie Amsterdam";23;"Groot-Amsterdam";15;"Zuid-Noord-Holland";21;"Agglomeratie Amsterdam";0;"De Vier Windstreken";"AMSTERDAM";"Noord-Holland";"PO2707";42553;326;157;169;166;77;83;247;325;156;169;165;77;83;247;1;1;0;1;0;0;0;52.4109932;4.9219424;75.7668711656442;"br />  <br /> 326 <br /> 75.7668711656442"
"150";"20ZG";"Noord-Holland";41774;"Openbare Basisschool Jan Pietersz Coen";"Bankastraat";"18";"1094 ED";"AMSTERDAM";363;"AMSTERDAM";"Openbaar";206650252;"                                                                                ";"Bankastraat";"18";"1094 ED";"AMSTERDAM";44;"Amsterdam";20;"Zuidelijk Noord-Holland";21;"Agglomeratie Amsterdam";23;"Groot-Amsterdam";15;"Zuid-Noord-Holland";21;"Agglomeratie Amsterdam";0;"Obs Jan Pietersz Coen";"AMSTERDAM";"Noord-Holland";"PO2707";41774;359;172;187;285;6;68;271;358;172;186;284;6;68;270;1;0;1;1;0;0;1;52.3647026;4.9324408;75.4874651810585;"br />  <br /> 359 <br /> 75.4874651810585"
"151";"20ZH";"Noord-Holland";41774;"De Kraal";"Paradijsplein";"2";"1093 NJ";"AMSTERDAM";363;"AMSTERDAM";"Openbaar";206941138;"www.kunstmagneetschooldekraal.nl";"Paradijsplein";"2";"1093 NJ";"AMSTERDAM";44;"Amsterdam";20;"Zuidelijk Noord-Holland";21;"Agglomeratie Amsterdam";23;"Groot-Amsterdam";15;"Zuid-Noord-Holland";21;"Agglomeratie Amsterdam";0;"De Kraal";"AMSTERDAM";"Noord-Holland";"PO2707";41774;393;246;147;285;28;80;204;393;246;147;285;28;80;204;0;0;0;0;0;0;0;52.3572171;4.9322487;51.9083969465649;"br />  <br /> 393 <br /> 51.9083969465649"
"152";"20ZR";"Noord-Holland";42553;"Basisschool Boven 't IJ Montessori-School";"Kampina";"5";"1025 DD";"AMSTERDAM";363;"AMSTERDAM";"Openbaar";206371194;"www.montessori-boventij.nl";"Kampina";"5";"1025 DD";"AMSTERDAM";44;"Amsterdam";20;"Zuidelijk Noord-Holland";21;"Agglomeratie Amsterdam";23;"Groot-Amsterdam";15;"Zuid-Noord-Holland";21;"Agglomeratie Amsterdam";0;"Basisschool Boven 't IJ";"AMSTERDAM";"Noord-Holland";"PO2707";42553;558;313;245;528;9;21;174;558;313;245;528;9;21;174;0;0;0;0;0;0;0;52.4035936;4.9401733;31.1827956989247;"br />  <br /> 558 <br /> 31.1827956989247"
"153";"20ZT";"Noord-Holland";42553;"Het Vogelnest";"Mussenstraat";"26";"1021 CS";"AMSTERDAM";363;"AMSTERDAM";"Openbaar";206361792;"www.obshetvogelnest.nl";"Mussenstraat";"26";"1021 CS";"AMSTERDAM";44;"Amsterdam";20;"Zuidelijk Noord-Holland";21;"Agglomeratie Amsterdam";23;"Groot-Amsterdam";15;"Zuid-Noord-Holland";21;"Agglomeratie Amsterdam";0;"Het Vogelnest";"AMSTERDAM";"Noord-Holland";"PO2707";42553;123;47;76;72;19;32;90;123;47;76;72;19;32;90;0;0;0;0;0;0;0;52.3867685;4.9170767;73.1707317073171;"br />  <br /> 123 <br /> 73.1707317073171"
"154";"20ZU";"Noord-Holland";42553;"IKC Zeven Zeen";"Banneplein";"111";"1034 DN";"AMSTERDAM";363;"AMSTERDAM";"Openbaar";206316842;"www.ikczevenzeeen.nl";"Banneplein";"111";"1034 DN";"AMSTERDAM";44;"Amsterdam";20;"Zuidelijk Noord-Holland";21;"Agglomeratie Amsterdam";23;"Groot-Amsterdam";15;"Zuid-Noord-Holland";21;"Agglomeratie Amsterdam";0;"IKC Zeven Zeen";"AMSTERDAM";"Noord-Holland";"PO2707";42553;217;113;104;141;17;59;165;217;113;104;141;17;59;165;0;0;0;0;0;0;0;52.407107;4.9173248;76.036866359447;"br />  <br /> 217 <br /> 76.036866359447"
"155";"20ZV";"Noord-Holland";42553;"Twiske";"Pandorinastraat";"7-A";"1035 VR";"AMSTERDAM";363;"AMSTERDAM";"Openbaar";206312540;"                                                                                ";"Pandorinastraat";"7-A";"1035 VR";"AMSTERDAM";44;"Amsterdam";20;"Zuidelijk Noord-Holland";21;"Agglomeratie Amsterdam";23;"Groot-Amsterdam";15;"Zuid-Noord-Holland";21;"Agglomeratie Amsterdam";0;"Twiske";"AMSTERDAM";"Noord-Holland";"PO2707";42553;499;262;237;474;18;7;58;499;262;237;474;18;7;58;0;0;0;0;0;0;0;52.4189758;4.9021608;11.623246492986;"br />  <br /> 499 <br /> 11.623246492986"
"156";"20ZW";"Noord-Holland";42553;"De Klimop";"Varenweg";"6";"1031 CB";"AMSTERDAM";363;"AMSTERDAM";"Openbaar";206368100;"www.deklimopamsterdam.nl";"Varenweg";"6";"1031 CB";"AMSTERDAM";44;"Amsterdam";20;"Zuidelijk Noord-Holland";21;"Agglomeratie Amsterdam";23;"Groot-Amsterdam";15;"Zuid-Noord-Holland";21;"Agglomeratie Amsterdam";0;"De Klimop";"AMSTERDAM";"Noord-Holland";"PO2707";42553;174;77;97;122;7;45;105;174;77;97;122;7;45;105;0;0;0;0;0;0;0;52.3924282;4.9182735;60.3448275862069;"br />  <br /> 174 <br /> 60.3448275862069"
"157";"20ZX";"Noord-Holland";42553;"De Piramide";"Houdringe";"2";"1025 BA";"AMSTERDAM";363;"AMSTERDAM";"Openbaar";206365954;"www.piramideschool.nl";"Houdringe";"2";"1025 BA";"AMSTERDAM";44;"Amsterdam";20;"Zuidelijk Noord-Holland";21;"Agglomeratie Amsterdam";23;"Groot-Amsterdam";15;"Zuid-Noord-Holland";21;"Agglomeratie Amsterdam";0;"De Piramide";"AMSTERDAM";"Noord-Holland";"PO2707";42553;137;70;67;106;6;25;89;134;68;66;103;6;25;87;3;2;1;3;0;0;2;52.4006137;4.9457522;64.963503649635;"br />  <br /> 137 <br /> 64.963503649635"
"158";"20ZZ";"Noord-Holland";41579;"Openbare Basisschool De Punt";"Kwelderweg";"5";"1069 VP";"AMSTERDAM";363;"AMSTERDAM";"Openbaar";206199743;"www.basisschooldepunt.nl";"Kwelderweg";"5";"1069 VP";"AMSTERDAM";44;"Amsterdam";20;"Zuidelijk Noord-Holland";21;"Agglomeratie Amsterdam";23;"Groot-Amsterdam";15;"Zuid-Noord-Holland";21;"Agglomeratie Amsterdam";0;"OBS De Punt";"AMSTERDAM";"Noord-Holland";"PO2707";41579;422;197;225;352;13;57;272;422;197;225;352;13;57;272;0;0;0;0;0;0;0;52.3558345;4.7842161;64.4549763033175;"br />  <br /> 422 <br /> 64.4549763033175"
"159";"21AD";"Noord-Holland";41579;"Osdorpse Montessori School";"Hoekenes";"59";"1068 MR";"AMSTERDAM";363;"AMSTERDAM";"Openbaar";206190914;"www.osdorpsemontessorischool.nl";"Hoekenes";"59";"1068 MR";"AMSTERDAM";44;"Amsterdam";20;"Zuidelijk Noord-Holland";21;"Agglomeratie Amsterdam";23;"Groot-Amsterdam";15;"Zuid-Noord-Holland";21;"Agglomeratie Amsterdam";0;"Osdorpse Montessori";"AMSTERDAM";"Noord-Holland";"PO2707";41579;294;155;139;254;17;23;200;294;155;139;254;17;23;200;0;0;0;0;0;0;0;52.3538985;4.8032068;68.0272108843537;"br />  <br /> 294 <br /> 68.0272108843537"
"160";"21AG";"Noord-Holland";41579;"Openbare Basisschool De Globe";"Evertsweertplantsoen";"3";"1069 RK";"AMSTERDAM";363;"AMSTERDAM";"Openbaar";204101627;"www.obs-deglobe.nl";"Evertsweertplantsoen";"3";"1069 RK";"AMSTERDAM";44;"Amsterdam";20;"Zuidelijk Noord-Holland";21;"Agglomeratie Amsterdam";23;"Groot-Amsterdam";15;"Zuid-Noord-Holland";21;"Agglomeratie Amsterdam";0;"OBS De Globe";"AMSTERDAM";"Noord-Holland";"PO2707";41579;309;152;157;207;18;84;216;309;152;157;207;18;84;216;0;0;0;0;0;0;0;52.355969;4.7930363;69.9029126213592;"br />  <br /> 309 <br /> 69.9029126213592"
"161";"21AH";"Noord-Holland";42553;"IJdoorn-School";"Werengouw";"83";"1024 NN";"AMSTERDAM";363;"AMSTERDAM";"Openbaar";206363914;"www.ijdoornschool.nl";"Werengouw";"83";"1024 NN";"AMSTERDAM";44;"Amsterdam";20;"Zuidelijk Noord-Holland";21;"Agglomeratie Amsterdam";23;"Groot-Amsterdam";15;"Zuid-Noord-Holland";21;"Agglomeratie Amsterdam";0;"IJdoorn-School";"AMSTERDAM";"Noord-Holland";"PO2707";42553;306;139;167;212;28;66;23;304;138;166;210;28;66;23;2;1;1;2;0;0;0;52.3916218;4.9535595;7.51633986928105;"br />  <br /> 306 <br /> 7.51633986928105"
"162";"21AI";"Noord-Holland";42553;"De Krijtmolen";"Molenwijk";"8";"1035 EE";"AMSTERDAM";363;"AMSTERDAM";"Openbaar";206311560;"www.krijtmolen.edu.amsterdam.nl";"Molenwijk";"8";"1035 EE";"AMSTERDAM";44;"Amsterdam";20;"Zuidelijk Noord-Holland";21;"Agglomeratie Amsterdam";23;"Groot-Amsterdam";15;"Zuid-Noord-Holland";21;"Agglomeratie Amsterdam";0;"De Krijtmolen";"AMSTERDAM";"Noord-Holland";"PO2707";42553;222;106;116;171;17;34;128;222;106;116;171;17;34;128;0;0;0;0;0;0;0;52.4198861;4.8919343;57.6576576576577;"br />  <br /> 222 <br /> 57.6576576576577"
"163";"22LE";"Noord-Holland";41774;"Openbare Basisschool 8e Montessori Zeeburg";"Borneokade";"103";"1019 KZ";"AMSTERDAM";363;"AMSTERDAM";"Openbaar";206922542;"www.8emontessorischool.nl";"Borneokade";"103";"1019 KZ";"AMSTERDAM";44;"Amsterdam";20;"Zuidelijk Noord-Holland";21;"Agglomeratie Amsterdam";23;"Groot-Amsterdam";15;"Zuid-Noord-Holland";21;"Agglomeratie Amsterdam";0;"Obs 8e Montessori Z'burg";"AMSTERDAM";"Noord-Holland";"PO2707";41774;447;249;198;431;6;10;63;447;249;198;431;6;10;63;0;0;0;0;0;0;0;52.370489;4.939092;14.0939597315436;"br />  <br /> 447 <br /> 14.0939597315436"
"164";"22LW";"Noord-Holland";30703;"Evangelische Basisschool De Morgenster";"Holendrechtplein";"42";"1106 LP";"AMSTERDAM";363;"AMSTERDAM";"Evangelisch";206961238;"ebsdemorgenster.nl";"Holendrechtplein";"42";"1106 LP";"AMSTERDAM";44;"Amsterdam";20;"Zuidelijk Noord-Holland";21;"Agglomeratie Amsterdam";23;"Groot-Amsterdam";15;"Zuid-Noord-Holland";21;"Agglomeratie Amsterdam";0;"De Morgenster";"AMSTERDAM";"Noord-Holland";"PO2707";30703;228;102;126;193;13;22;115;224;101;123;189;13;22;113;4;1;3;4;0;0;2;52.299303;4.9651424;50.4385964912281;"br />  <br /> 228 <br /> 50.4385964912281"
"165";"23FB";"Noord-Holland";41857;"Basisschool De Zevensprong";"Sint-Hubertpad";"6";"1066 HN";"AMSTERDAM";363;"AMSTERDAM";"Algemeen bijzonder";204081571;"www.zevensprong-amsterdam.nl";"Sint-Hubertpad";"6";"1066 HN";"AMSTERDAM";44;"Amsterdam";20;"Zuidelijk Noord-Holland";21;"Agglomeratie Amsterdam";23;"Groot-Amsterdam";15;"Zuid-Noord-Holland";21;"Agglomeratie Amsterdam";0;"De Zevensprong";"AMSTERDAM";"Noord-Holland";"PO2707";41857;400;202;198;375;24;1;27;397;199;198;372;24;1;27;3;3;0;3;0;0;0;52.3442991;4.8178761;6.75;"br />  <br /> 400 <br /> 6.75"
"166";"23FD";"Noord-Holland";30709;"Shri Laksmi School";"Janusz Korczakstraat";"73";"1102 JR";"AMSTERDAM";363;"AMSTERDAM";"Hindoestisch";206950368;"www.shrilaksmi.nl";"postbus";"52104";"2544 EX";"'S-GRAVENHAGE";44;"Amsterdam";20;"Zuidelijk Noord-Holland";21;"Agglomeratie Amsterdam";23;"Groot-Amsterdam";15;"Zuid-Noord-Holland";21;"Agglomeratie Amsterdam";1;"Shri Laksmi School";"ALMERE";"Flevoland";"PO2401";30709;131;57;74;125;4;2;0;131;57;74;125;4;2;0;0;0;0;0;0;0;0;52.3195727;4.9557831;0;"br />  <br /> 131 <br /> 0"
"167";"23FD";"Noord-Holland";30709;"Shri Laksmi School";"Janusz Korczakstraat";"73";"1102 JR";"AMSTERDAM";363;"AMSTERDAM";"Hindoestisch";206950368;"www.shrilaksmi.nl";"postbus";"52104";"2544 EX";"'S-GRAVENHAGE";44;"Amsterdam";20;"Zuidelijk Noord-Holland";21;"Agglomeratie Amsterdam";23;"Groot-Amsterdam";15;"Zuid-Noord-Holland";21;"Agglomeratie Amsterdam";0;"Shri Laksmi School";"AMSTERDAM";"Noord-Holland";"PO2707";30709;311;157;154;254;14;43;77;309;156;153;252;14;43;77;2;1;1;2;0;0;0;52.3195727;4.9557831;24.7588424437299;"br />  <br /> 311 <br /> 24.7588424437299"
"168";"23FF";"Noord-Holland";41857;"Het Gein";"Cornelis Aarnoutsstraat";"80";"1106 ZG";"AMSTERDAM";363;"AMSTERDAM";"Algemeen bijzonder";206974522;"www.hetgein.nl";"Cornelis Aarnoutsstraat";"80";"1106 ZG";"AMSTERDAM";44;"Amsterdam";20;"Zuidelijk Noord-Holland";21;"Agglomeratie Amsterdam";23;"Groot-Amsterdam";15;"Zuid-Noord-Holland";21;"Agglomeratie Amsterdam";0;"Het Gein";"AMSTERDAM";"Noord-Holland";"PO2707";41857;388;200;188;358;19;11;19;388;200;188;358;19;11;19;0;0;0;0;0;0;0;52.2987716;4.9934851;4.89690721649485;"br />  <br /> 388 <br /> 4.89690721649485"
"169";"23HR";"Noord-Holland";30883;"As Siddieq";"Jan van Riebeekstraat";"11-13";"1057 ZW";"AMSTERDAM";363;"AMSTERDAM";"Islamitisch";206180838;"www.as-siddieq.nl";"Postbus";"80";"3360 AB";"SLIEDRECHT";44;"Amsterdam";20;"Zuidelijk Noord-Holland";21;"Agglomeratie Amsterdam";23;"Groot-Amsterdam";15;"Zuid-Noord-Holland";21;"Agglomeratie Amsterdam";0;"As Siddieq";"AMSTERDAM";"Noord-Holland";"PO2707";30883;427;253;174;281;13;133;398;427;253;174;281;13;133;398;0;0;0;0;0;0;0;52.3706137;4.8582126;93.2084309133489;"br />  <br /> 427 <br /> 93.2084309133489"
"170";"23PJ";"Noord-Holland";41023;"RK Basisschool De Achthoek";"Baron G.A. Tindalplein";"12";"1019 TJ";"AMSTERDAM";363;"AMSTERDAM";"Rooms-Katholiek";204185562;"www.achthoek.nl";"Baron G.A. Tindalplein";"12";"1019 TJ";"AMSTERDAM";44;"Amsterdam";20;"Zuidelijk Noord-Holland";21;"Agglomeratie Amsterdam";23;"Groot-Amsterdam";15;"Zuid-Noord-Holland";21;"Agglomeratie Amsterdam";0;"De Achthoek";"AMSTERDAM";"Noord-Holland";"PO2707";41023;788;389;399;782;1;5;139;788;389;399;782;1;5;139;0;0;0;0;0;0;0;52.3733747;4.9427804;17.6395939086294;"br />  <br /> 788 <br /> 17.6395939086294"
"171";"24AM";"Noord-Holland";41023;"Rooms Katholieke Basisschool de Mijlpaal";"Westmallepad";"11-A";"1066 PP";"AMSTERDAM";363;"AMSTERDAM";"Rooms-Katholiek";206692488;"www.mijlpaal.eu";"Anderlechtlaan";"1";"1066 HK";"AMSTERDAM";44;"Amsterdam";20;"Zuidelijk Noord-Holland";21;"Agglomeratie Amsterdam";23;"Groot-Amsterdam";15;"Zuid-Noord-Holland";21;"Agglomeratie Amsterdam";0;"RK Basissch de Mijlpaal";"AMSTERDAM";"Noord-Holland";"PO2707";41023;521;252;269;485;21;15;208;518;249;269;482;21;15;208;3;3;0;3;0;0;0;52.3472904;4.8064344;39.9232245681382;"br />  <br /> 521 <br /> 39.9232245681382"
"172";"24BM";"Noord-Holland";41579;"Openbare Basisschool de Vlaamse Reus";"Hechtelstraat";"49";"1066 KK";"AMSTERDAM";363;"AMSTERDAM";"Openbaar";206177499;"www.devlaamsereus.nl";"Hechtelstraat";"49";"1066 KK";"AMSTERDAM";44;"Amsterdam";20;"Zuidelijk Noord-Holland";21;"Agglomeratie Amsterdam";23;"Groot-Amsterdam";15;"Zuid-Noord-Holland";21;"Agglomeratie Amsterdam";0;"OBS de Vlaamse Reus";"AMSTERDAM";"Noord-Holland";"PO2707";41579;294;162;132;261;14;19;127;294;162;132;261;14;19;127;0;0;0;0;0;0;0;52.3475159;4.8177028;43.1972789115646;"br />  <br /> 294 <br /> 43.1972789115646"
"173";"24DP";"Noord-Holland";41781;"Basisschool Oostelijke Eilanden";"Kraijenhoffstraat";"10";"1018 RK";"AMSTERDAM";363;"AMSTERDAM";"Openbaar";206391045;"                                                                                ";"Kraijenhoffstraat";"10";"1018 RK";"AMSTERDAM";44;"Amsterdam";20;"Zuidelijk Noord-Holland";21;"Agglomeratie Amsterdam";23;"Groot-Amsterdam";15;"Zuid-Noord-Holland";21;"Agglomeratie Amsterdam";0;"Bs Oostelijke Eilanden";"AMSTERDAM";"Noord-Holland";"PO2707";41781;498;278;220;482;1;15;130;498;278;220;482;1;15;130;0;0;0;0;0;0;0;52.3683532;4.9285516;26.1044176706827;"br />  <br /> 498 <br /> 26.1044176706827"
"174";"24MW";"Noord-Holland";40400;"Islamitische Basisschool El Kadisia";"Piet Mondriaanplein";"2";"1061 SC";"AMSTERDAM";363;"AMSTERDAM";"Islamitisch";206138648;"www.stichtingelamal.nl";"Piet Mondriaanplein";"2";"1061 SC";"AMSTERDAM";44;"Amsterdam";20;"Zuidelijk Noord-Holland";21;"Agglomeratie Amsterdam";23;"Groot-Amsterdam";15;"Zuid-Noord-Holland";21;"Agglomeratie Amsterdam";0;"Isl Bas El Kadisia";"AMSTERDAM";"Noord-Holland";"PO2707";40400;433;247;186;325;15;93;401;431;246;185;323;15;93;399;2;1;1;2;0;0;2;52.3658714;4.8412798;92.6096997690531;"br />  <br /> 433 <br /> 92.6096997690531"
"175";"24MW";"Noord-Holland";40400;"Islamitische Basisschool El Kadisia";"Piet Mondriaanplein";"2";"1061 SC";"AMSTERDAM";363;"AMSTERDAM";"Islamitisch";206138648;"www.stichtingelamal.nl";"Piet Mondriaanplein";"2";"1061 SC";"AMSTERDAM";44;"Amsterdam";20;"Zuidelijk Noord-Holland";21;"Agglomeratie Amsterdam";23;"Groot-Amsterdam";15;"Zuid-Noord-Holland";21;"Agglomeratie Amsterdam";2;"Isl Bas El Kadisia";"HAARLEM";"Noord-Holland";"PO2704";40400;313;206;107;233;11;69;250;313;206;107;233;11;69;250;0;0;0;0;0;0;0;52.3658714;4.8412798;79.8722044728434;"br />  <br /> 313 <br /> 79.8722044728434"
"176";"24MW";"Noord-Holland";40400;"Islamitische Basisschool El Kadisia";"Piet Mondriaanplein";"2";"1061 SC";"AMSTERDAM";363;"AMSTERDAM";"Islamitisch";206138648;"www.stichtingelamal.nl";"Piet Mondriaanplein";"2";"1061 SC";"AMSTERDAM";44;"Amsterdam";20;"Zuidelijk Noord-Holland";21;"Agglomeratie Amsterdam";23;"Groot-Amsterdam";15;"Zuid-Noord-Holland";21;"Agglomeratie Amsterdam";4;"Isl Bas El Kadisia";"HARDERWIJK";"Gelderland";"PO2509";40400;46;14;32;33;6;7;30;46;14;32;33;6;7;30;0;0;0;0;0;0;0;52.3658714;4.8412798;65.2173913043478;"br />  <br /> 46 <br /> 65.2173913043478"
"177";"24NT";"Noord-Holland";40586;"Stichting Montessori Basisschool de Eilanden";"Grote Bickersstraat";"102";"1013 KS";"AMSTERDAM";363;"AMSTERDAM";"Algemeen bijzonder";206209608;"                                                                                ";"Grote Bickersstraat";"102";"1013 KS";"AMSTERDAM";44;"Amsterdam";20;"Zuidelijk Noord-Holland";21;"Agglomeratie Amsterdam";23;"Groot-Amsterdam";15;"Zuid-Noord-Holland";21;"Agglomeratie Amsterdam";0;"Stg Mont Bo de Eilanden";"AMSTERDAM";"Noord-Holland";"PO2707";40586;252;129;123;247;1;4;46;252;129;123;247;1;4;46;0;0;0;0;0;0;0;52.3868219;4.8901003;18.2539682539683;"br />  <br /> 252 <br /> 18.2539682539683"
"178";"24TB";"Noord-Holland";40294;"El-Amien Islamitische Basisschool";"Saaftingestraat";"312";"1069 BW";"AMSTERDAM";363;"AMSTERDAM";"Islamitisch";206199970;"www.elamien.nl";"Saaftingestraat";"312";"1069 BW";"AMSTERDAM";44;"Amsterdam";20;"Zuidelijk Noord-Holland";21;"Agglomeratie Amsterdam";23;"Groot-Amsterdam";15;"Zuid-Noord-Holland";21;"Agglomeratie Amsterdam";0;"El-Amien";"AMSTERDAM";"Noord-Holland";"PO2707";40294;378;206;172;338;4;36;305;378;206;172;338;4;36;305;0;0;0;0;0;0;0;52.3627626;4.789231;80.6878306878307;"br />  <br /> 378 <br /> 80.6878306878307"
"179";"24TC";"Noord-Holland";40586;"Europaschool";"Hygieaplein";"8";"1076 RT";"AMSTERDAM";363;"AMSTERDAM";"Algemeen bijzonder";205854811;"www.europaschool.nl";"Prinses Irenestraat";"59";"1077 WV";"AMSTERDAM";44;"Amsterdam";20;"Zuidelijk Noord-Holland";21;"Agglomeratie Amsterdam";23;"Groot-Amsterdam";15;"Zuid-Noord-Holland";21;"Agglomeratie Amsterdam";0;"Europaschool";"AMSTERDAM";"Noord-Holland";"PO2707";40586;1062;663;399;1061;1;0;623;1061;662;399;1060;1;0;622;1;1;0;1;0;0;1;52.3469674;4.8626246;58.6629001883239;"br />  <br /> 1062 <br /> 58.6629001883239"
"180";"24ZH";"Noord-Holland";40389;"Islam Bs As Soeffah";"EGoli";"10";"1103 AC";"AMSTERDAM";363;"AMSTERDAM";"Islamitisch";206002743;"www.assoeffah.nl";"Hoogoord";"257";"1102 CN";"AMSTERDAM";44;"Amsterdam";20;"Zuidelijk Noord-Holland";21;"Agglomeratie Amsterdam";23;"Groot-Amsterdam";15;"Zuid-Noord-Holland";21;"Agglomeratie Amsterdam";0;"Islam Bs As Soeffah";"AMSTERDAM";"Noord-Holland";"PO2707";40389;296;161;135;204;13;79;175;295;160;135;203;13;79;174;1;1;0;1;0;0;1;52.323009;4.959811;59.1216216216216;"br />  <br /> 296 <br /> 59.1216216216216"
"181";"24ZK";"Noord-Holland";40189;"Crescendo";"Kortvoort";"61-C";"1104 NA";"AMSTERDAM";363;"AMSTERDAM";"Evangelische broedergemeenscha";206957178;"www.crescendo-school.nl";"Kortvoort";"61-C";"1104 NA";"AMSTERDAM";44;"Amsterdam";20;"Zuidelijk Noord-Holland";21;"Agglomeratie Amsterdam";23;"Groot-Amsterdam";15;"Zuid-Noord-Holland";21;"Agglomeratie Amsterdam";0;"Crescendo";"AMSTERDAM";"Noord-Holland";"PO2707";40189;341;174;167;203;45;93;46;339;173;166;202;44;93;45;2;1;1;1;1;0;1;52.315838;4.970323;13.4897360703812;"br />  <br /> 341 <br /> 13.4897360703812"
"182";"25KC";"Noord-Holland";41579;"Openbare Daltonbasisschool De Horizon";"Pieter Calandlaan";"768";"1060 TZ";"AMSTERDAM";363;"AMSTERDAM";"Openbaar";206672281;"www.horizondalton.nl";"Pieter Calandlaan";"768";"1060 TZ";"AMSTERDAM";44;"Amsterdam";20;"Zuidelijk Noord-Holland";21;"Agglomeratie Amsterdam";23;"Groot-Amsterdam";15;"Zuid-Noord-Holland";21;"Agglomeratie Amsterdam";0;"obs De Horizon";"AMSTERDAM";"Noord-Holland";"PO2707";41579;671;319;352;650;8;13;340;671;319;352;650;8;13;340;0;0;0;0;0;0;0;52.3499995;4.7875197;50.6706408345753;"br />  <br /> 671 <br /> 50.6706408345753"
"183";"27LT";"Noord-Holland";41774;"Openbare Basisschool Olympus";"Erich Salomonstraat";"432";"1087 JA";"AMSTERDAM";363;"AMSTERDAM";"Openbaar";206080828;"www.olympus.nl";"Erich Salomonstraat";"432";"1087 JA";"AMSTERDAM";44;"Amsterdam";20;"Zuidelijk Noord-Holland";21;"Agglomeratie Amsterdam";23;"Groot-Amsterdam";15;"Zuid-Noord-Holland";21;"Agglomeratie Amsterdam";0;"Obs Olympus";"AMSTERDAM";"Noord-Holland";"PO2707";41774;202;66;136;162;15;25;138;202;66;136;162;15;25;138;0;0;0;0;0;0;0;52.3549515;4.9998258;68.3168316831683;"br />  <br /> 202 <br /> 68.3168316831683"
"184";"27MB";"Noord-Holland";40294;"Islamitische Basisschool El Amien II";"Wiltzanghlaan";"93";"1061 HB";"AMSTERDAM";363;"AMSTERDAM";"Islamitisch";204889409;"www.elamien.nl";"Postbus";"67014";"1060 JA";"AMSTERDAM";44;"Amsterdam";20;"Zuidelijk Noord-Holland";21;"Agglomeratie Amsterdam";23;"Groot-Amsterdam";15;"Zuid-Noord-Holland";21;"Agglomeratie Amsterdam";0;"El Amien II";"AMSTERDAM";"Noord-Holland";"PO2707";40294;319;164;155;259;6;54;259;319;164;155;259;6;54;259;0;0;0;0;0;0;0;52.3815972;4.8405154;81.1912225705329;"br />  <br /> 319 <br /> 81.1912225705329"
"185";"27NP";"Noord-Holland";81316;"Oecumenische Dalton bassischool Neptunus";"Piet Zwarthof";"2";"1087 AX";"AMSTERDAM";363;"AMSTERDAM";"Protestants-Christelijk";203987790;"www.daltonschoolneptunus.nl";"Piet Zwarthof";"2";"1087 AX";"AMSTERDAM";44;"Amsterdam";20;"Zuidelijk Noord-Holland";21;"Agglomeratie Amsterdam";23;"Groot-Amsterdam";15;"Zuid-Noord-Holland";21;"Agglomeratie Amsterdam";0;"Neptunus";"AMSTERDAM";"Noord-Holland";"PO2707";81316;342;150;192;322;3;17;116;342;150;192;322;3;17;116;0;0;0;0;0;0;0;52.3595743;4.9909787;33.9181286549708;"br />  <br /> 342 <br /> 33.9181286549708"
"186";"27NV";"Noord-Holland";41023;"Willibrordschool";"Diemerparklaan";"11";"1087 EM";"AMSTERDAM";363;"AMSTERDAM";"Rooms-Katholiek";203981540;"www.willibrordijburg.nl";"Diemerparklaan";"11";"1087 EM";"AMSTERDAM";44;"Amsterdam";20;"Zuidelijk Noord-Holland";21;"Agglomeratie Amsterdam";23;"Groot-Amsterdam";15;"Zuid-Noord-Holland";21;"Agglomeratie Amsterdam";0;"Willibrordschool";"AMSTERDAM";"Noord-Holland";"PO2707";41023;374;190;184;350;6;18;96;374;190;184;350;6;18;96;0;0;0;0;0;0;0;52.3549366;4.9948161;25.668449197861;"br />  <br /> 374 <br /> 25.668449197861"
"187";"27PR";"Noord-Holland";40400;"Al Wafa";"Harry Koningsbergerstr";"30";"1063 AD";"AMSTERDAM";363;"AMSTERDAM";"Islamitisch";204861638;"                                                                                ";"Harry Koningsbergerstr";"30";"1063 AD";"AMSTERDAM";44;"Amsterdam";20;"Zuidelijk Noord-Holland";21;"Agglomeratie Amsterdam";23;"Groot-Amsterdam";15;"Zuid-Noord-Holland";21;"Agglomeratie Amsterdam";0;"Al Wafa";"AMSTERDAM";"Noord-Holland";"PO2707";40400;286;156;130;207;14;65;248;286;156;130;207;14;65;248;0;0;0;0;0;0;0;52.3805999;4.836709;86.7132867132867;"br />  <br /> 286 <br /> 86.7132867132867"
"188";"27PR";"Noord-Holland";40400;"Al Wafa";"Harry Koningsbergerstr";"30";"1063 AD";"AMSTERDAM";363;"AMSTERDAM";"Islamitisch";204861638;"                                                                                ";"Harry Koningsbergerstr";"30";"1063 AD";"AMSTERDAM";44;"Amsterdam";20;"Zuidelijk Noord-Holland";21;"Agglomeratie Amsterdam";23;"Groot-Amsterdam";15;"Zuid-Noord-Holland";21;"Agglomeratie Amsterdam";2;"Al Wafa";"ALKMAAR";"Noord-Holland";"PO2703";40400;77;41;36;42;6;29;77;77;41;36;42;6;29;77;0;0;0;0;0;0;0;52.3805999;4.836709;100;"br />  <br /> 77 <br /> 100"
"189";"27PT";"Noord-Holland";41857;"Piet Hein";"Oostelijke Handelskade";"6";"1019 BM";"AMSTERDAM";363;"AMSTERDAM";"Algemeen bijzonder";204195242;"www.basisschoolpiethein.nl";"Oostelijke Handelskade";"6";"1019 BM";"AMSTERDAM";44;"Amsterdam";20;"Zuidelijk Noord-Holland";21;"Agglomeratie Amsterdam";23;"Groot-Amsterdam";15;"Zuid-Noord-Holland";21;"Agglomeratie Amsterdam";0;"Piet Hein";"AMSTERDAM";"Noord-Holland";"PO2707";41857;417;223;194;379;22;16;76;416;222;194;378;22;16;75;1;1;0;1;0;0;1;52.3748312;4.9309836;18.2254196642686;"br />  <br /> 417 <br /> 18.2254196642686"
"190";"27PU";"Noord-Holland";41857;"De Zuiderzee";"Brigantijnkade";"51";"1086 VB";"AMSTERDAM";363;"AMSTERDAM";"Algemeen bijzonder";204165862;"www.abbsdezuiderzee.nl";"Brigantijnkade";"51";"1086 VB";"AMSTERDAM";44;"Amsterdam";20;"Zuidelijk Noord-Holland";21;"Agglomeratie Amsterdam";23;"Groot-Amsterdam";15;"Zuid-Noord-Holland";21;"Agglomeratie Amsterdam";0;"Zuiderzee";"AMSTERDAM";"Noord-Holland";"PO2707";41857;300;115;185;267;12;21;77;300;115;185;267;12;21;77;0;0;0;0;0;0;0;52.3628931;4.9874058;25.6666666666667;"br />  <br /> 300 <br /> 25.6666666666667"
"191";"27YK";"Noord-Holland";41774;"De Kleine Kapitein";"Tosaristraat";"30-A";"1019 RT";"AMSTERDAM";363;"AMSTERDAM";"Openbaar";204198983;"www.dekleinekapitein.nl";"Tosaristraat";"30-A";"1019 RT";"AMSTERDAM";44;"Amsterdam";20;"Zuidelijk Noord-Holland";21;"Agglomeratie Amsterdam";23;"Groot-Amsterdam";15;"Zuid-Noord-Holland";21;"Agglomeratie Amsterdam";0;"De Kleine Kapitein";"AMSTERDAM";"Noord-Holland";"PO2707";41774;251;131;120;244;3;4;56;250;131;119;243;3;4;56;1;0;1;1;0;0;0;52.3791287;4.9234076;22.3107569721116;"br />  <br /> 251 <br /> 22.3107569721116"
"192";"28AJ";"Noord-Holland";81316;"Oecumenische basisschool De Odyssee";"Cycladenlaan";"2-A";"1060 LW";"AMSTERDAM";363;"AMSTERDAM";"Protestants-Christelijk";206671762;"www.deodyssee.nl";"Cycladenlaan";"2-A";"1060 LW";"AMSTERDAM";44;"Amsterdam";20;"Zuidelijk Noord-Holland";21;"Agglomeratie Amsterdam";23;"Groot-Amsterdam";15;"Zuid-Noord-Holland";21;"Agglomeratie Amsterdam";0;"De Odyssee";"AMSTERDAM";"Noord-Holland";"PO2707";81316;470;240;230;459;5;6;175;470;240;230;459;5;6;175;0;0;0;0;0;0;0;52.3485709;4.7928125;37.2340425531915;"br />  <br /> 470 <br /> 37.2340425531915"
"193";"28AU";"Noord-Holland";41023;"Het Bovenland";"Akersluis";"1-A";"1066 ER";"AMSTERDAM";363;"AMSTERDAM";"Rooms-Katholiek";204084686;"www.hetbovenland.nl";"Akersluis";"1-A";"1066 ER";"AMSTERDAM";44;"Amsterdam";20;"Zuidelijk Noord-Holland";21;"Agglomeratie Amsterdam";23;"Groot-Amsterdam";15;"Zuid-Noord-Holland";21;"Agglomeratie Amsterdam";0;"Het Bovenland";"AMSTERDAM";"Noord-Holland";"PO2707";41023;284;178;106;267;6;11;103;284;178;106;267;6;11;103;0;0;0;0;0;0;0;52.3438064;4.7944172;36.2676056338028;"br />  <br /> 284 <br /> 36.2676056338028"
"194";"28BA";"Noord-Holland";41774;"Openbare basisschool Steigereiland";"John Hadleystraat";"4";"1086 WB";"AMSTERDAM";363;"AMSTERDAM";"Openbaar";204161677;"www.obssteigereiland.nl";"John Hadleystraat";"4";"1086 WB";"AMSTERDAM";44;"Amsterdam";20;"Zuidelijk Noord-Holland";21;"Agglomeratie Amsterdam";23;"Groot-Amsterdam";15;"Zuid-Noord-Holland";21;"Agglomeratie Amsterdam";0;"Steigereiland";"AMSTERDAM";"Noord-Holland";"PO2707";41774;638;317;321;619;9;10;58;638;317;321;619;9;10;58;0;0;0;0;0;0;0;52.3604378;4.9842797;9.09090909090909;"br />  <br /> 638 <br /> 9.09090909090909"
"195";"28BZ";"Noord-Holland";41857;"abbs Elzenhagen";"N. Lansdorpstraat";"2";"1022 KB";"AMSTERDAM";363;"AMSTERDAM";"Algemeen bijzonder";206373848;"www.abbs-elzenhagen.nl";"N. Lansdorpstraat";"2";"1022 KB";"AMSTERDAM";44;"Amsterdam";20;"Zuidelijk Noord-Holland";21;"Agglomeratie Amsterdam";23;"Groot-Amsterdam";15;"Zuid-Noord-Holland";21;"Agglomeratie Amsterdam";0;"abbs Elzenhagen";"AMSTERDAM";"Noord-Holland";"PO2707";41857;384;202;182;368;10;6;70;382;201;181;366;10;6;68;2;1;1;2;0;0;2;52.4048341;4.9301709;18.2291666666667;"br />  <br /> 384 <br /> 18.2291666666667"
"196";"28DD";"Noord-Holland";42553;"OBS NoordRijk IKC";"Braeburnstraat";"1";"1036 LD";"AMSTERDAM";363;"AMSTERDAM";"Openbaar";203372192;"www.ikcnoordrijk.nl";"Braeburnstraat";"1";"1036 LD";"AMSTERDAM";44;"Amsterdam";20;"Zuidelijk Noord-Holland";21;"Agglomeratie Amsterdam";23;"Groot-Amsterdam";15;"Zuid-Noord-Holland";21;"Agglomeratie Amsterdam";0;"NoordRijk";"AMSTERDAM";"Noord-Holland";"PO2707";42553;386;233;153;348;18;20;113;386;233;153;348;18;20;113;0;0;0;0;0;0;0;52.4080675;4.9034781;29.2746113989637;"br />  <br /> 386 <br /> 29.2746113989637"
"197";"29RV";"Noord-Holland";41857;"Het Podium";"Emmy Andriessestraat";"56";"1087 MJ";"AMSTERDAM";363;"AMSTERDAM";"Algemeen bijzonder";204167222;"www.abbshetpodium.nl";"Emmy Andriessestraat";"56";"1087 MJ";"AMSTERDAM";44;"Amsterdam";20;"Zuidelijk Noord-Holland";21;"Agglomeratie Amsterdam";23;"Groot-Amsterdam";15;"Zuid-Noord-Holland";21;"Agglomeratie Amsterdam";0;"Het Podium";"AMSTERDAM";"Noord-Holland";"PO2707";41857;513;205;308;482;11;20;15;513;205;308;482;11;20;15;0;0;0;0;0;0;0;52.3494771;5.0054127;2.92397660818713;"br />  <br /> 513 <br /> 2.92397660818713"
"198";"29UA";"Noord-Holland";41774;"Laterna Magica";"Eva Besnyostraat";"491";"1087 LG";"AMSTERDAM";363;"AMSTERDAM";"Openbaar";204161911;"www.obslaternamagica.nl";"Eva Besnyostraat";"491";"1087 LG";"AMSTERDAM";44;"Amsterdam";20;"Zuidelijk Noord-Holland";21;"Agglomeratie Amsterdam";23;"Groot-Amsterdam";15;"Zuid-Noord-Holland";21;"Agglomeratie Amsterdam";0;"Laterna Magica";"AMSTERDAM";"Noord-Holland";"PO2707";41774;664;381;283;660;2;2;82;664;381;283;660;2;2;82;0;0;0;0;0;0;0;52.3502177;5.0080547;12.3493975903614;"br />  <br /> 664 <br /> 12.3493975903614"
"199";"29XF";"Noord-Holland";41023;"Katholieke Basisschool De Archipel";"Franz Zieglerstraat";"11";"1087 HN";"AMSTERDAM";363;"AMSTERDAM";"Rooms-Katholiek";203140280;"www.kbsdearchipel.nl";"Franz Zieglerstraat";"201";"1087 HN";"AMSTERDAM";44;"Amsterdam";20;"Zuidelijk Noord-Holland";21;"Agglomeratie Amsterdam";23;"Groot-Amsterdam";15;"Zuid-Noord-Holland";21;"Agglomeratie Amsterdam";0;"De Archipel";"AMSTERDAM";"Noord-Holland";"PO2707";41023;265;130;135;244;12;9;98;265;130;135;244;12;9;98;0;0;0;0;0;0;0;52.3529278;5.006764;36.9811320754717;"br />  <br /> 265 <br /> 36.9811320754717"
"200";"30BB";"Noord-Holland";81316;"Oecumenische basisschool De Poseidon";"Franz Zieglerstraat";"7";"1087 HN";"AMSTERDAM";363;"AMSTERDAM";"Protestants-Christelijk";204167238;"www.deposeidon.nl";"Franz Zieglerstraat";"7";"1087 HN";"AMSTERDAM";44;"Amsterdam";20;"Zuidelijk Noord-Holland";21;"Agglomeratie Amsterdam";23;"Groot-Amsterdam";15;"Zuid-Noord-Holland";21;"Agglomeratie Amsterdam";0;"De Poseidon";"AMSTERDAM";"Noord-Holland";"PO2707";81316;446;265;181;435;5;6;97;446;265;181;435;5;6;97;0;0;0;0;0;0;0;52.3530629;5.0069057;21.7488789237668;"br />  <br /> 446 <br /> 21.7488789237668"
"201";"30FG";"Noord-Holland";42553;"Overhoeks";"Chrysantenstraat";"28";"1031 HT";"AMSTERDAM";363;"AMSTERDAM";"Openbaar";206304770;"                                                                                ";"Chrysantenstraat";"28";"1031 HT";"AMSTERDAM";44;"Amsterdam";20;"Zuidelijk Noord-Holland";21;"Agglomeratie Amsterdam";23;"Groot-Amsterdam";15;"Zuid-Noord-Holland";21;"Agglomeratie Amsterdam";0;"Overhoeks";"AMSTERDAM";"Noord-Holland";"PO2707";42553;267;179;88;247;17;3;89;266;178;88;246;17;3;88;1;1;0;1;0;0;1;52.3919633;4.9055578;33.3333333333333;"br />  <br /> 267 <br /> 33.3333333333333"
"202";"30GF";"Noord-Holland";41023;"Oecumenische basisschool De IJsbreker";"Chrysantenstraat";"26";"1031 HT";"AMSTERDAM";363;"AMSTERDAM";"Samenwerking PC, RK";206369643;"www.basisschooldeijsbreker.nl";"Chrysantenstraat";"26";"1031 HT";"AMSTERDAM";44;"Amsterdam";20;"Zuidelijk Noord-Holland";21;"Agglomeratie Amsterdam";23;"Groot-Amsterdam";15;"Zuid-Noord-Holland";21;"Agglomeratie Amsterdam";0;"De IJsbreker";"AMSTERDAM";"Noord-Holland";"PO2707";41023;318;230;88;308;6;4;48;318;230;88;308;6;4;48;0;0;0;0;0;0;0;52.3920343;4.9064286;15.0943396226415;"br />  <br /> 318 <br /> 15.0943396226415"
"203";"30GJ";"Noord-Holland";42527;"Basisschool Witte Tulp";"Koos Vorrinkweg";"5";"1069 JR";"AMSTERDAM";363;"AMSTERDAM";"Algemeen bijzonder";206138482;"www.bswittetulp.nl";"Postbus";"9920";"1006 AP";"AMSTERDAM";44;"Amsterdam";20;"Zuidelijk Noord-Holland";21;"Agglomeratie Amsterdam";23;"Groot-Amsterdam";15;"Zuid-Noord-Holland";21;"Agglomeratie Amsterdam";0;"Bs Witte Tulp";"AMSTERDAM";"Noord-Holland";"PO2707";42527;208;117;91;194;4;10;160;207;116;91;193;4;10;159;1;1;0;1;0;0;1;52.3531729;4.8000605;76.9230769230769;"br />  <br /> 208 <br /> 76.9230769230769"
"204";"30PM";"Noord-Holland";41774;"Montessorischool Zeeburgereiland";"Faas Wilkesstraat";"451";"1095 MD";"AMSTERDAM";363;"AMSTERDAM";"Openbaar";203039559;"www.IKCZeeburgereiland.nl";"Faas Wilkesstraat";"451";"1095 MD";"AMSTERDAM";44;"Amsterdam";20;"Zuidelijk Noord-Holland";21;"Agglomeratie Amsterdam";23;"Groot-Amsterdam";15;"Zuid-Noord-Holland";21;"Agglomeratie Amsterdam";0;"Zeeburgereiland";"AMSTERDAM";"Noord-Holland";"PO2707";41774;136;92;44;135;0;1;7;136;92;44;135;0;1;7;0;0;0;0;0;0;0;52.3723136;4.970069;5.14705882352941;"br />  <br /> 136 <br /> 5.14705882352941"
"205";"30RL";"Noord-Holland";41781;"Kindercampus Zuidas";"Antonio Vivaldistraat";"15";"1083 HP";"AMSTERDAM";363;"AMSTERDAM";"Openbaar";207230788;"www.kindercampuszuidas.nl";"Antonio Vivaldistraat";"15";"1083 HP";"AMSTERDAM";44;"Amsterdam";20;"Zuidelijk Noord-Holland";21;"Agglomeratie Amsterdam";23;"Groot-Amsterdam";15;"Zuid-Noord-Holland";21;"Agglomeratie Amsterdam";0;"Kindercampus Zuidas";"AMSTERDAM";"Noord-Holland";"PO2707";41781;121;121;0;114;4;3;45;121;121;0;114;4;3;45;0;0;0;0;0;0;0;52.3365397;4.882804;37.1900826446281;"br />  <br /> 121 <br /> 37.1900826446281"
"206";"30UE";"Noord-Holland";30883;"As-Siddieq Noord";"Dijkmanshuizenstraat";"119";"1024 XJ";"AMSTERDAM";363;"AMSTERDAM";"Islamitisch";206371376;"www.as-siddieq.nl";"Postbus";"80";"3360 AB";"SLIEDRECHT";44;"Amsterdam";20;"Zuidelijk Noord-Holland";21;"Agglomeratie Amsterdam";23;"Groot-Amsterdam";15;"Zuid-Noord-Holland";21;"Agglomeratie Amsterdam";0;"As-Siddieq Noord";"AMSTERDAM";"Noord-Holland";"PO2707";30883;280;154;126;174;29;77;274;277;152;125;172;29;76;271;3;2;1;2;0;1;3;52.3953045;4.9561922;97.8571428571428;"br />  <br /> 280 <br /> 97.8571428571428"
"207";"30UF";"Noord-Holland";30883;"As-Siddieq Oost";"Sumatraplantsoen";"15";"1095 HW";"AMSTERDAM";363;"AMSTERDAM";"Islamitisch";206927983;"www.as-siddieq.nl";"Postbus";"80";"3360 AB";"SLIEDRECHT";44;"Amsterdam";20;"Zuidelijk Noord-Holland";21;"Agglomeratie Amsterdam";23;"Groot-Amsterdam";15;"Zuid-Noord-Holland";21;"Agglomeratie Amsterdam";0;"As-Siddieq Oost";"AMSTERDAM";"Noord-Holland";"PO2707";30883;383;203;180;237;22;124;378;383;203;180;237;22;124;378;0;0;0;0;0;0;0;52.3607864;4.9428695;98.6945169712794;"br />  <br /> 383 <br /> 98.6945169712794"
"208";"30UP";"Noord-Holland";41774;"De Amstel";"Welnastraat";"845";"1096 GJ";"AMSTERDAM";363;"AMSTERDAM";"Openbaar";203706705;"www.mkcdeamstel.nl";"Welnastraat";"845";"1096 GJ";"AMSTERDAM";44;"Amsterdam";20;"Zuidelijk Noord-Holland";21;"Agglomeratie Amsterdam";23;"Groot-Amsterdam";15;"Zuid-Noord-Holland";21;"Agglomeratie Amsterdam";0;"De Amstel";"AMSTERDAM";"Noord-Holland";"PO2707";41774;160;124;36;160;0;0;35;158;122;36;158;0;0;35;2;2;0;2;0;0;0;52.3397098;4.9191096;21.875;"br />  <br /> 160 <br /> 21.875"
"209";"30VE";"Noord-Holland";41800;"Cosmicus-Impuls";"Het Breed";"10";"1025 HR";"AMSTERDAM";363;"AMSTERDAM";"Algemeen bijzonder";202170720;"www.bscosmicus-impuls.nl";"Postbus";"59190";"3008 PD";"ROTTERDAM";44;"Amsterdam";20;"Zuidelijk Noord-Holland";21;"Agglomeratie Amsterdam";23;"Groot-Amsterdam";15;"Zuid-Noord-Holland";21;"Agglomeratie Amsterdam";0;"Cosmicus";"AMSTERDAM";"Noord-Holland";"PO2707";41800;87;67;20;81;2;4;85;86;66;20;80;2;4;85;1;1;0;1;0;0;0;52.3953253;4.9362235;97.7011494252874;"br />  <br /> 87 <br /> 97.7011494252874"
"210";"30XH";"Noord-Holland";42684;"De Ontplooiing";"August Allebeplein";"7";"1062 AA";"AMSTERDAM";363;"AMSTERDAM";"Algemeen bijzonder";206400982;"www.deontplooiing.nu";"Postbus";"9853";"1006 AN";"AMSTERDAM";44;"Amsterdam";20;"Zuidelijk Noord-Holland";21;"Agglomeratie Amsterdam";23;"Groot-Amsterdam";15;"Zuid-Noord-Holland";21;"Agglomeratie Amsterdam";0;"De Ontplooiing";"AMSTERDAM";"Noord-Holland";"PO2707";42684;132;66;66;117;12;3;16;132;66;66;117;12;3;16;0;0;0;0;0;0;0;52.3631307;4.8392895;12.1212121212121;"br />  <br /> 132 <br /> 12.1212121212121"
"211";"30XJ";"Noord-Holland";42684;"De Voorsprong";"Woudrichemstraat";"8";"1107 NG";"AMSTERDAM";363;"AMSTERDAM";"Algemeen bijzonder";206400982;"                                                                                ";"Postbus";"9853";"1006 AN";"AMSTERDAM";44;"Amsterdam";20;"Zuidelijk Noord-Holland";21;"Agglomeratie Amsterdam";23;"Groot-Amsterdam";15;"Zuid-Noord-Holland";21;"Agglomeratie Amsterdam";0;"De Voorsprong";"AMSTERDAM";"Noord-Holland";"PO2707";42684;5;2;3;5;0;0;0;5;2;3;5;0;0;0;0;0;0;0;0;0;0;52.2942853;4.9876908;0;"br />  <br /> 5 <br /> 0"
"212";"31AE";"Noord-Holland";42708;"Lotusschool";"Holendrechtplein";"44";"1106 LP";"AMSTERDAM";363;"AMSTERDAM";"Hindoestisch";652685654;"                                                                                ";"Postbus";"23493";"1100 DZ";"AMSTERDAM";44;"Amsterdam";20;"Zuidelijk Noord-Holland";21;"Agglomeratie Amsterdam";23;"Groot-Amsterdam";15;"Zuid-Noord-Holland";21;"Agglomeratie Amsterdam";0;"Lotusschool";"AMSTERDAM";"Noord-Holland";"PO2707";42708;59;31;28;29;18;12;20;59;31;28;29;18;12;20;0;0;0;0;0;0;0;52.2992912;4.9643509;33.8983050847458;"br />  <br /> 59 <br /> 33.8983050847458"
